name,href,address,city,state
East Palace,http://www.seamless.com/food-delivery/east-palace-new-york-city.11404.r,819 2nd Ave,New York,NY
Stella's Pizza,http://www.seamless.com/food-delivery/stellas-pizza-manhattan-consumer.3638.r,110 Ninth Ave,New York,NY
Burgers & Cupcakes,http://www.seamless.com/food-delivery/burgers-cupcakes-new-york-city.5845.r,458 9th Ave,New York,NY
Overlook,http://www.seamless.com/food-delivery/overlook-new-york-city.11446.r,225 East 44th St.,New York,NY
Empire Szechuan (Columbus),http://www.seamless.com/food-delivery/empire-szechuan-columbus-new-york-city.1915.r,193 Columbus,NY,NY
Red 58,http://www.seamless.com/food-delivery/red-58-new-york-city.18642.r,158 West 58th Street,NY,NY
Bella Napoli (30th/Madison),http://www.seamless.com/food-delivery/bella-napoli-30thmadison-new-york-city.3491.r,130 Madison Ave,New York,NY
Va Presto by Scotto (42nd St),http://www.seamless.com/food-delivery/va-presto-by-scotto-42nd-st-new-york-city.38830.r,220 E 42nd Street,New York,NY
Bread & Butter (44th St) (Formerly Green Cafe (44th)),http://www.seamless.com/food-delivery/bread-butter-44th-st-formerly-green-cafe-44th-new-york-city.5403.r,14 E 44th St.,New York,NY
Green Cafe (6th Ave),http://www.seamless.com/food-delivery/green-cafe-6th-ave-manhattan-consumer.6593.r,599 6th Ave,New York,NY
Green Cafe (E. 58th),http://www.seamless.com/food-delivery/green-cafe-e-58th-new-york-city.8700.r,36 East 58th St,New York,NY
Darbar,http://www.seamless.com/food-delivery/darbar-new-york-city.1744.r,152 E. 46th,New York,NY
China Fun - 2nd Ave,http://www.seamless.com/food-delivery/china-fun-2nd-ave-new-york-city.752.r,1221 Second Avenue,New York,NY
Green Cafe,http://www.seamless.com/food-delivery/green-cafe-new-york-city.2249.r,21 West 58th Street,New York,NY
Tal Bagels (Broadway),http://www.seamless.com/food-delivery/tal-bagels-broadway-new-york-city.12702.r,2446 Broadway,New York,NY
Shinju Japanese,http://www.seamless.com/food-delivery/shinju-japanese-new-york-city.3789.r,164 Pearl Street,NY,NY
Pizza Mezzaluna,http://www.seamless.com/food-delivery/pizza-mezzaluna-manhattan-consumer.4816.r,146 W. Houston St.,New York,NY
New Xe Lua Vietnamese Restaurant,http://www.seamless.com/food-delivery/new-xe-lua-vietnamese-restaurant-new-york-city.10760.r,86 Mulberry Street,New York,NY
QI Restaurant,http://www.seamless.com/food-delivery/qi-restaurant-new-york-city.7509.r,31 W. 14th Street,New York,NY
Pizza Shack,http://www.seamless.com/food-delivery/pizza-shack-new-york-city.11454.r,525 Grand St.,New York,NY
Tasty Cafe (30th),http://www.seamless.com/food-delivery/tasty-cafe-30th-new-york-city.9396.r,126 Madison Ave.,New York,NY
Mansion Restaurant,http://www.seamless.com/food-delivery/mansion-restaurant-new-york-city.17132.r,1634 York Ave.,New York,NY
Belmora Pizza & Restaurant,http://www.seamless.com/food-delivery/belmora-pizza-restaurant-new-york-city.3262.r,139 East 57th Street,New York,NY
Curry Dream,http://www.seamless.com/food-delivery/curry-dream-new-york-city.2533.r,66 West 39th Street,New York,NY
Subway (39th St),http://www.seamless.com/food-delivery/subway-39th-st-new-york-city.1397.r,32 West 39th Street,New York,NY
Fusha,http://www.seamless.com/food-delivery/fusha-new-york-city.1721.r,1065 1st Avenue,NY,NY
Qi (43rd St),http://www.seamless.com/food-delivery/qi-43rd-st-new-york-city.19013.r,675 8th Avenue,New York,NY
SUteiShi,http://www.seamless.com/food-delivery/suteishi-new-york-city.3711.r,24 Peck Slip,NY,NY
Gee Whiz Diner,http://www.seamless.com/food-delivery/gee-whiz-diner-new-york-city.951.r,295 Greenwich Street,New York,NY
Ponty Bistro,http://www.seamless.com/food-delivery/ponty-bistro-new-york-city.11209.r,218 3rd Ave,New York,NY
Silver Spurs,http://www.seamless.com/food-delivery/silver-spurs-new-york-city.987.r,490 Laguardia Place,New York,NY
Theatre Row Diner,http://www.seamless.com/food-delivery/theatre-row-diner-new-york-city.16581.r,424 West 42nd St,New York,NY
Artichoke Pizza,http://www.seamless.com/food-delivery/artichoke-pizza-new-york-city.17235.r,114 10th Ave,New York,NY
Coppelia,http://www.seamless.com/food-delivery/coppelia-new-york-city.18242.r,207 W 14th St,NY,NY
Lily's,http://www.seamless.com/food-delivery/lilys-new-york-city.4004.r,31 Oliver St.,NY,NY
Salaam Bombay,http://www.seamless.com/food-delivery/salaam-bombay-new-york-city.691.r,319 Greenwich Avenue,New York,NY
Taco House,http://www.seamless.com/food-delivery/taco-house-new-york-city.4738.r,178 Church St.,New York,NY
Fresco Tortillas (9th Ave),http://www.seamless.com/food-delivery/fresco-tortillas-9th-ave-new-york-city.11468.r,536 9th Ave,New York,NY
Amelia's Diner,http://www.seamless.com/food-delivery/amelias-diner-new-york-city.12704.r,110 Varick St.,New York,NY
Cafe Amore's Pizzeria Ristorante (Chambers Street),http://www.seamless.com/food-delivery/cafe-amores-pizzeria-ristorante-chambers-street-new-york-city.18790.r,147 Chambers St.,New York,NY
Chelsea Square Restaurant,http://www.seamless.com/food-delivery/chelsea-square-restaurant-new-york-city.16733.r,368 W 23rd St,New York,NY
Diablo Royale,http://www.seamless.com/food-delivery/diablo-royale-new-york-city.19098.r,189 W 10th St,New York,NY
Harry's Cafe & Steak,http://www.seamless.com/food-delivery/harrys-cafe-steak-new-york-city.3756.r,1 Hanover Square,New York,NY
Hudson View Restaurant,http://www.seamless.com/food-delivery/hudson-view-restaurant-new-york-city.18162.r,770 W 181st St.,New York,NY
Pick a Bagel (8th Ave),http://www.seamless.com/food-delivery/pick-a-bagel-8th-ave-new-york-city.1494.r,891 Eighth Ave,New York,NY
Eighteen Restaurant,http://www.seamless.com/food-delivery/eighteen-restaurant-new-york-city.7274.r,240 East 81st Street,New York,NY
BLT Fish Shack,http://www.seamless.com/food-delivery/blt-fish-shack-new-york-city.19913.r,21 W 17th Street,NY,NY
Casa Nonna,http://www.seamless.com/food-delivery/casa-nonna-new-york-city.19932.r,310 W 38th St,NY,NY
Fresh & Co. (57th Street),http://www.seamless.com/food-delivery/fresh-co-57th-street-new-york-city.4313.r,45 West 57th Street,NY,NY
Fresh & Co. (Lexington Avenue),http://www.seamless.com/food-delivery/fresh-co-lexington-avenue-new-york-city.5095.r,681 Lexington Avenue,NY,NY
Fresh & Co. (Seventh Avenue),http://www.seamless.com/food-delivery/fresh-co-seventh-avenue-new-york-city.8327.r,363 Seventh Avenue,New York,NY
Garlic New York Pizza Bar,http://www.seamless.com/food-delivery/garlic-new-york-pizza-bar-new-york-city.19789.r,629 Second Avenue,NY,NY
Goodfellas LES,http://www.seamless.com/food-delivery/goodfellas-les-new-york-city.18756.r,144 Orchard Street,NY,NY
Jimmy's BurgerShack (brought to you by Brother Jimmy's),http://www.seamless.com/food-delivery/jimmys-burgershack-brought-to-you-by-brother-jimmys-new-york-city.19639.r,258 West 31st Street,NY,NY
Cosi (3rd Ave),http://www.seamless.com/food-delivery/cosi-3rd-ave-new-york-city.22451.r,685 3rd Ave.,New York,
Minar Indian Restaurant (31st St.),http://www.seamless.com/food-delivery/minar-indian-restaurant-31st-st-new-york-city.4204.r,5 West 31st Street,New York,NY
Minar Indian Restaurant (46th St.),http://www.seamless.com/food-delivery/minar-indian-restaurant-46th-st-new-york-city.4209.r,138 West 46th Street,New York City,NY
Napoli Pizza & Pasta (formerly Dolce Vita Pizzeria),http://www.seamless.com/food-delivery/napoli-pizza-pasta-formerly-dolce-vita-pizzeria-new-york-city.4823.r,152 East 110th St,New York,NY
Obao,http://www.seamless.com/food-delivery/obao-new-york-city.8064.r,222 E 53rd St,NY,NY
Pranna,http://www.seamless.com/food-delivery/pranna-new-york-city.19511.r,79 Madison Avenue,New York,NY
La Silhouette,http://www.seamless.com/food-delivery/la-silhouette-new-york-city.20021.r,362 West 53rd Street,New York,NY
Gigino at Wagner Park,http://www.seamless.com/food-delivery/gigino-at-wagner-park-new-york-city.8591.r,20 Battery Pl,New York,NY
Hunan Park,http://www.seamless.com/food-delivery/hunan-park-new-york-city.17043.r,721 Columbus Ave,New York,NY
John's of 12th Street,http://www.seamless.com/food-delivery/johns-of-12th-street-new-york-city.8500.r,302 E 12th Street,NY,NY
Rice & Beans,http://www.seamless.com/food-delivery/rice-beans-new-york-city.8557.r,744 Ninth Ave,New York,NY
Rye House,http://www.seamless.com/food-delivery/rye-house-new-york-city.4511.r,11 W. 17th St,NY,NY
Warren 77,http://www.seamless.com/food-delivery/warren-77-new-york-city.8123.r,77 Warren St,New York,NY
Aaheli,http://www.seamless.com/food-delivery/aaheli-new-york-city.7718.r,826 9th Ave,New York,NY
Zabb City,http://www.seamless.com/food-delivery/zabb-city-manhattan-consumer.10183.r,244 East 13th St.,New York,NY
Red Egg,http://www.seamless.com/food-delivery/red-egg-new-york-city.16317.r,202 Centre St.,New York,NY
AA Jing,http://www.seamless.com/food-delivery/aa-jing-new-york-city.11400.r,689 9th Ave,New York,NY
Bus Stop Cafe,http://www.seamless.com/food-delivery/bus-stop-cafe-manhattan-consumer.3713.r,597 Hudson Street,New York,NY
California Pizza Kitchen (Park Ave),http://www.seamless.com/food-delivery/california-pizza-kitchen-park-ave-ny-metro.6974.r,440 Park Avenue S.,NY,NY
Gran Piatto d Oro,http://www.seamless.com/food-delivery/gran-piatto-d-oro-new-york-city.19129.r,1429 5th Avenue,NY,NY
Sac's Place,http://www.seamless.com/food-delivery/sacs-place-queens.16684.r,2541 Broadway,Astoria,NY
Adrienne's Pizza Bar,http://www.seamless.com/food-delivery/adriennes-pizza-bar-new-york-city.4671.r,54 Stone St.,New York,NY
Brick Lane Curry House,http://www.seamless.com/food-delivery/brick-lane-curry-house-new-york-city.1628.r,99 2nd Ave.,New York,NY
Dallas BBQ (42nd St.),http://www.seamless.com/food-delivery/dallas-bbq-42nd-st-new-york-city.3861.r,241 West 42nd Street,New York,NY
Dallas BBQ (Chelsea),http://www.seamless.com/food-delivery/dallas-bbq-chelsea-new-york-city.740.r,261 8th Ave,New York,NY
Evergreen Diner,http://www.seamless.com/food-delivery/evergreen-diner-new-york-city.7531.r,145 West 47th Street,New York,NY
Kati,http://www.seamless.com/food-delivery/kati-manhattan-consumer.6764.r,347 E 14th St.,New York,NY
Nobi Sushi,http://www.seamless.com/food-delivery/nobi-sushi-new-york-city.2394.r,437 3rd Avenue,New York,NY
Weng's Palace/Thai Palace,http://www.seamless.com/food-delivery/wengs-palacethai-palace-new-york-city.7073.r,304 West 40th St,NY,NY
China Spice NYC,http://www.seamless.com/food-delivery/china-spice-nyc-new-york-city.17276.r,1588 York Ave,New York,NY
Coopers Tavern,http://www.seamless.com/food-delivery/coopers-tavern-new-york-city.5130.r,481 Eighth Ave,New York,NY
Europan Penn Station,http://www.seamless.com/food-delivery/europan-penn-station-new-york-city.4794.r,1 Penn Plaza,New York,NY
Fatty Crab (Hudson Street),http://www.seamless.com/food-delivery/fatty-crab-hudson-street-new-york-city.17457.r,643 Hudson Street,NY,NY
The Organic Grill,http://www.seamless.com/food-delivery/the-organic-grill-new-york-city.7431.r,123 1st Ave,New York,NY
V-Note,http://www.seamless.com/food-delivery/vnote-new-york-city.16455.r,1522 First Ave,New York,NY
Giorgione,http://www.seamless.com/food-delivery/giorgione-new-york-city.19455.r,307 Spring Street,New York,NY
Haru Wall St,http://www.seamless.com/food-delivery/haru-wall-st-new-york-city.9222.r,1 Wall Street Court,New York,NY
Aroma Espresso Bar (72nd St),http://www.seamless.com/food-delivery/aroma-espresso-bar-72nd-st-new-york-city.8805.r,161 W 72nd St,New York,NY
Aroma Espresso Bar (Midtown),http://www.seamless.com/food-delivery/aroma-espresso-bar-midtown-new-york-city.4547.r,205 East 42nd St,New York,NY
Rasa (Formerly known as Sushi Yawa),http://www.seamless.com/food-delivery/rasa-formerly-known-as-sushi-yawa-manhattan-consumer.8347.r,25 W 8th St.,New York,NY
Cafe Classico Glatt Kosher Restaurant,http://www.seamless.com/food-delivery/cafe-classico-glatt-kosher-restaurant-new-york-city.11.r,35 West 57th Street,New York,NY
Abboccato,http://www.seamless.com/food-delivery/abboccato-new-york-city.10576.r,136 West 55th St.,New York,NY
Baburchi's,http://www.seamless.com/food-delivery/baburchis-manhattan-consumer.9469.r,90 West 3rd St.,New York,NY
Dai Hachi Sushi,http://www.seamless.com/food-delivery/dai-hachi-sushi-new-york-city.11403.r,303 E. 56th St.,New York,NY
Crudo Restaurant,http://www.seamless.com/food-delivery/crudo-restaurant-new-york-city.16992.r,235 West 35th Street,New York,NY
International Food House,http://www.seamless.com/food-delivery/international-food-house-new-york-city.17181.r,217 Dyckman Street,New York,NY
La Corsa,http://www.seamless.com/food-delivery/la-corsa-new-york-city.17997.r,123 E. 110th Street,New York,NY
Nirvana (Lex),http://www.seamless.com/food-delivery/nirvana-lex-new-york-city.10617.r,346 Lexington Ave,New York,NY
Sushi Suki,http://www.seamless.com/food-delivery/sushi-suki-new-york-city.3505.r,1577 York Avenue,New York,NY
Texas Rotisserie & Grill (UWS),http://www.seamless.com/food-delivery/texas-rotisserie-grill-uws-new-york-city.11148.r,2581 Broadway,New York,NY
Adriatic Italian Restaurant,http://www.seamless.com/food-delivery/adriatic-italian-restaurant-new-york-city.19232.r,321 1st Avenue,New York,NY
Agora Turkish Restaurant,http://www.seamless.com/food-delivery/agora-turkish-restaurant-new-york-city.19619.r,1565 2nd Avenue,New York,NY
Amaze Restaurant,http://www.seamless.com/food-delivery/amaze-restaurant-new-york-city.19715.r,694 Third Avenue,New York,NY
Antalia Mediterranean Turkish Restaurant,http://www.seamless.com/food-delivery/antalia-mediterranean-turkish-restaurant-new-york-city.17444.r,17 W 45 Street,New York,NY
Bodrum Turkish Mediterranean Restaurant,http://www.seamless.com/food-delivery/bodrum-turkish-mediterranean-restaurant-new-york-city.4441.r,584 Amsterdam Ave,New York,NY
Cuba Restaurant,http://www.seamless.com/food-delivery/cuba-restaurant-new-york-city.16713.r,222 Thompson Street,New York,NY
Lin's Chinese Restaurant,http://www.seamless.com/food-delivery/lins-chinese-restaurant-ny-metro.18014.r,32 East 23rd St.,New York,NY
Cafe Evergreen,http://www.seamless.com/food-delivery/cafe-evergreen-new-york-city.1729.r,1367 1st Ave.,New York,NY
Calcutta Cuisine of India,http://www.seamless.com/food-delivery/calcutta-cuisine-of-india-manhattan-consumer.3828.r,324 E 6th Street,New York,NY
Sushiya,http://www.seamless.com/food-delivery/sushiya-new-york-city.7687.r,28 West 56th Street,New York,NY
David Burke at Bloomingdale's,http://www.seamless.com/food-delivery/david-burke-at-bloomingdales-new-york-city.7297.r,1000 3rd Avenue,New York,NY
Fresh Tortilla Express,http://www.seamless.com/food-delivery/fresh-tortilla-express-new-york-city.18455.r,206 Varick Street,New York,NY
Sakura of Japan,http://www.seamless.com/food-delivery/sakura-of-japan-new-york-city.71.r,819 2nd Avenue,New York,NY
Squires Diner,http://www.seamless.com/food-delivery/squires-diner-new-york-city.9431.r,80 Beekman St.,New York,NY
The Manchester Diner,http://www.seamless.com/food-delivery/the-manchester-diner-new-york-city.20067.r,2800 Broadway,New York,NY
Cosi (Broad St),http://www.seamless.com/food-delivery/cosi-broad-st-new-york-city.6603.r,55 Broad Street,New York,NY
Bodhi Tree,http://www.seamless.com/food-delivery/bodhi-tree-manhattan-consumer.6587.r,58 3rd Ave,New York,NY
Gracie Cafe,http://www.seamless.com/food-delivery/gracie-cafe-new-york-city.3761.r,1530 York Avenue,New York,NY
Happy Family Chinese and Japanese Restaurant,http://www.seamless.com/food-delivery/happy-family-chinese-and-japanese-restaurant-new-york-city.11411.r,500 West 43rd St.,New York,NY
Dulce Vida Cafe,http://www.seamless.com/food-delivery/dulce-vida-cafe-new-york-city.18804.r,1219 Lexington Ave,New York,NY
Saffron Garden,http://www.seamless.com/food-delivery/saffron-garden-queens.19818.r,46-11 Skillman Ave,Woodside,NY
Fusha,http://www.seamless.com/food-delivery/fusha-new-york-city.1721.r,1065 1st Avenue,New York,NY
Qi (43rd St),http://www.seamless.com/food-delivery/qi-43rd-st-new-york-city.19013.r,675 8th Avenue,New York,NY
SUteiShi,http://www.seamless.com/food-delivery/suteishi-new-york-city.3711.r,24 Peck Slip,New York,NY
Gee Whiz Diner,http://www.seamless.com/food-delivery/gee-whiz-diner-new-york-city.951.r,295 Greenwich Street,New York,NY
Cosi (3rd Ave),http://www.seamless.com/food-delivery/cosi-3rd-ave-new-york-city.22451.r,685 3rd Ave.,New York,
Ponty Bistro,http://www.seamless.com/food-delivery/ponty-bistro-new-york-city.11209.r,218 3rd Ave,New York,NY
Silver Spurs,http://www.seamless.com/food-delivery/silver-spurs-new-york-city.987.r,490 Laguardia Place,New York,NY
Theatre Row Diner,http://www.seamless.com/food-delivery/theatre-row-diner-new-york-city.16581.r,424 West 42nd St,New York,NY
Artichoke Pizza,http://www.seamless.com/food-delivery/artichoke-pizza-new-york-city.17235.r,114 10th Ave,New York,NY
Coppelia,http://www.seamless.com/food-delivery/coppelia-new-york-city.18242.r,207 W 14th St,New York,NY
Lily's,http://www.seamless.com/food-delivery/lilys-new-york-city.4004.r,31 Oliver St.,New York,NY
Salaam Bombay,http://www.seamless.com/food-delivery/salaam-bombay-new-york-city.691.r,319 Greenwich Avenue,New York,NY
Taco House,http://www.seamless.com/food-delivery/taco-house-new-york-city.4738.r,178 Church St.,New York,NY
Fresco Tortillas (9th Ave),http://www.seamless.com/food-delivery/fresco-tortillas-9th-ave-new-york-city.11468.r,536 9th Ave,New York,NY
Amelia's Diner,http://www.seamless.com/food-delivery/amelias-diner-new-york-city.12704.r,110 Varick St.,New York,NY
Cafe Amore's Pizzeria Ristorante (Chambers Street),http://www.seamless.com/food-delivery/cafe-amores-pizzeria-ristorante-chambers-street-new-york-city.18790.r,147 Chambers St.,New York,NY
Chelsea Square Restaurant,http://www.seamless.com/food-delivery/chelsea-square-restaurant-new-york-city.16733.r,368 W 23rd St,New York,NY
Diablo Royale,http://www.seamless.com/food-delivery/diablo-royale-new-york-city.19098.r,189 W 10th St,New York,NY
Harry's Cafe & Steak,http://www.seamless.com/food-delivery/harrys-cafe-steak-new-york-city.3756.r,1 Hanover Square,New York,NY
Hudson View Restaurant,http://www.seamless.com/food-delivery/hudson-view-restaurant-new-york-city.18162.r,770 W 181st St.,New York,NY
Pick a Bagel (8th Ave),http://www.seamless.com/food-delivery/pick-a-bagel-8th-ave-new-york-city.1494.r,891 Eighth Ave,New York,NY
Eighteen Restaurant,http://www.seamless.com/food-delivery/eighteen-restaurant-new-york-city.7274.r,240 East 81st Street,New York,NY
BLT Fish Shack,http://www.seamless.com/food-delivery/blt-fish-shack-new-york-city.19913.r,21 W 17th Street,New York,NY
Casa Nonna,http://www.seamless.com/food-delivery/casa-nonna-new-york-city.19932.r,310 W 38th St,New York,NY
Fresh & Co. (57th Street),http://www.seamless.com/food-delivery/fresh-co-57th-street-new-york-city.4313.r,45 West 57th Street,New York,NY
Fresh & Co. (Lexington Avenue),http://www.seamless.com/food-delivery/fresh-co-lexington-avenue-new-york-city.5095.r,681 Lexington Avenue,New York,NY
Fresh & Co. (Seventh Avenue),http://www.seamless.com/food-delivery/fresh-co-seventh-avenue-new-york-city.8327.r,363 Seventh Avenue,New York,NY
Garlic New York Pizza Bar,http://www.seamless.com/food-delivery/garlic-new-york-pizza-bar-new-york-city.19789.r,629 Second Avenue,New York,NY
Goodfellas LES,http://www.seamless.com/food-delivery/goodfellas-les-new-york-city.18756.r,144 Orchard Street,New York,NY
Jimmy's BurgerShack (brought to you by Brother Jimmy's),http://www.seamless.com/food-delivery/jimmys-burgershack-brought-to-you-by-brother-jimmys-new-york-city.19639.r,258 West 31st Street,NY,NY
Minar Indian Restaurant (31st St.),http://www.seamless.com/food-delivery/minar-indian-restaurant-31st-st-new-york-city.4204.r,5 West 31st Street,New York,NY
Minar Indian Restaurant (46th St.),http://www.seamless.com/food-delivery/minar-indian-restaurant-46th-st-new-york-city.4209.r,138 West 46th Street,New York City,NY
Napoli Pizza & Pasta (formerly Dolce Vita Pizzeria),http://www.seamless.com/food-delivery/napoli-pizza-pasta-formerly-dolce-vita-pizzeria-new-york-city.4823.r,152 East 110th St,New York,NY
Obao,http://www.seamless.com/food-delivery/obao-new-york-city.8064.r,222 E 53rd St,NY,NY
Pranna,http://www.seamless.com/food-delivery/pranna-new-york-city.19511.r,79 Madison Avenue,New York,NY
La Silhouette,http://www.seamless.com/food-delivery/la-silhouette-new-york-city.20021.r,362 West 53rd Street,New York,NY
Gigino at Wagner Park,http://www.seamless.com/food-delivery/gigino-at-wagner-park-new-york-city.8591.r,New York,NY,10004
Hunan Park,http://www.seamless.com/food-delivery/hunan-park-new-york-city.17043.r,721 Columbus Ave,New York,NY
John's of 12th Street,http://www.seamless.com/food-delivery/johns-of-12th-street-new-york-city.8500.r,302 E 12th Street,NY,NY
Rice & Beans,http://www.seamless.com/food-delivery/rice-beans-new-york-city.8557.r,744 Ninth Ave,New York,NY
Rye House,http://www.seamless.com/food-delivery/rye-house-new-york-city.4511.r,11 W. 17th St,NY,NY
Warren 77,http://www.seamless.com/food-delivery/warren-77-new-york-city.8123.r,77 Warren St,New York,NY
Aaheli,http://www.seamless.com/food-delivery/aaheli-new-york-city.7718.r,826 9th Ave,New York,NY
Zabb City,http://www.seamless.com/food-delivery/zabb-city-manhattan-consumer.10183.r,244 East 13th St.,New York,NY
Red Egg,http://www.seamless.com/food-delivery/red-egg-new-york-city.16317.r,202 Centre St.,New York,NY
AA Jing,http://www.seamless.com/food-delivery/aa-jing-new-york-city.11400.r,689 9th Ave,New York,NY
Bus Stop Cafe,http://www.seamless.com/food-delivery/bus-stop-cafe-manhattan-consumer.3713.r,597 Hudson Street,New York,NY
California Pizza Kitchen (Park Ave),http://www.seamless.com/food-delivery/california-pizza-kitchen-park-ave-ny-metro.6974.r,440 Park Avenue S.,NY,NY
Gran Piatto d Oro,http://www.seamless.com/food-delivery/gran-piatto-d-oro-new-york-city.19129.r,1429 5th Avenue,NY,NY
Sac's Place,http://www.seamless.com/food-delivery/sacs-place-queens.16684.r,2541 Broadway,Astoria,NY
Adrienne's Pizza Bar,http://www.seamless.com/food-delivery/adriennes-pizza-bar-new-york-city.4671.r,54 Stone St.,New York,NY
Brick Lane Curry House,http://www.seamless.com/food-delivery/brick-lane-curry-house-new-york-city.1628.r,99 2nd Ave.,New York,NY
Dallas BBQ (42nd St.),http://www.seamless.com/food-delivery/dallas-bbq-42nd-st-new-york-city.3861.r,241 West 42nd Street,New York,NY
Dallas BBQ (Chelsea),http://www.seamless.com/food-delivery/dallas-bbq-chelsea-new-york-city.740.r,261 8th Ave,New York,NY
Evergreen Diner,http://www.seamless.com/food-delivery/evergreen-diner-new-york-city.7531.r,145 West 47th Street,New York,NY
Kati,http://www.seamless.com/food-delivery/kati-manhattan-consumer.6764.r,347 E 14th St.,New York,NY
Nobi Sushi,http://www.seamless.com/food-delivery/nobi-sushi-new-york-city.2394.r,437 3rd Avenue,New York,NY
Weng's Palace/Thai Palace,http://www.seamless.com/food-delivery/wengs-palacethai-palace-new-york-city.7073.r,304 West 40th St,NY,NY
China Spice NYC,http://www.seamless.com/food-delivery/china-spice-nyc-new-york-city.17276.r,1588 York Ave,New York,NY
Coopers Tavern,http://www.seamless.com/food-delivery/coopers-tavern-new-york-city.5130.r,481 Eighth Ave,New York,NY
Europan Penn Station,http://www.seamless.com/food-delivery/europan-penn-station-new-york-city.4794.r,1 Penn Plaza,New York,NY
Fatty Crab (Hudson Street),http://www.seamless.com/food-delivery/fatty-crab-hudson-street-new-york-city.17457.r,643 Hudson Street,NY,NY
The Organic Grill,http://www.seamless.com/food-delivery/the-organic-grill-new-york-city.7431.r,123 1st Ave,New York,NY
V-Note,http://www.seamless.com/food-delivery/vnote-new-york-city.16455.r,1522 First Ave,New York,NY
Giorgione,http://www.seamless.com/food-delivery/giorgione-new-york-city.19455.r,307 Spring Street,New York,NY
Haru Wall St,http://www.seamless.com/food-delivery/haru-wall-st-new-york-city.9222.r,1 Wall Street Court,New York,NY
Aroma Espresso Bar (72nd St),http://www.seamless.com/food-delivery/aroma-espresso-bar-72nd-st-new-york-city.8805.r,161 W 72nd St,NY,NY
Aroma Espresso Bar (Midtown),http://www.seamless.com/food-delivery/aroma-espresso-bar-midtown-new-york-city.4547.r,205 East 42nd St,NY,NY
Rasa (Formerly known as Sushi Yawa),http://www.seamless.com/food-delivery/rasa-formerly-known-as-sushi-yawa-manhattan-consumer.8347.r,25 W 8th St.,New York,NY
Cafe Classico Glatt Kosher Restaurant,http://www.seamless.com/food-delivery/cafe-classico-glatt-kosher-restaurant-new-york-city.11.r,35 West 57th Street,New York,NY
Abboccato,http://www.seamless.com/food-delivery/abboccato-new-york-city.10576.r,136 West 55th St.,New York,NY
Baburchi's,http://www.seamless.com/food-delivery/baburchis-manhattan-consumer.9469.r,90 West 3rd St.,New York,NY
Dai Hachi Sushi,http://www.seamless.com/food-delivery/dai-hachi-sushi-new-york-city.11403.r,303 E. 56th St.,New York,NY
Crudo Restaurant,http://www.seamless.com/food-delivery/crudo-restaurant-new-york-city.16992.r,235 West 35th Street,NY,NY
International Food House,http://www.seamless.com/food-delivery/international-food-house-new-york-city.17181.r,217 Dyckman Street,New York,NY
La Corsa,http://www.seamless.com/food-delivery/la-corsa-new-york-city.17997.r,123 E. 110th Street,New York,NY
Nirvana (Lex),http://www.seamless.com/food-delivery/nirvana-lex-new-york-city.10617.r,346 Lexington Ave,New York,NY
Sushi Suki,http://www.seamless.com/food-delivery/sushi-suki-new-york-city.3505.r,1577 York Avenue,New York,NY
Texas Rotisserie & Grill (UWS),http://www.seamless.com/food-delivery/texas-rotisserie-grill-uws-new-york-city.11148.r,2581 Broadway,New York,NY
Adriatic Italian Restaurant,http://www.seamless.com/food-delivery/adriatic-italian-restaurant-new-york-city.19232.r,321 1st Avenue,NY,NY
Agora Turkish Restaurant,http://www.seamless.com/food-delivery/agora-turkish-restaurant-new-york-city.19619.r,1565 2nd Avenue,NY,NY
Amaze Restaurant,http://www.seamless.com/food-delivery/amaze-restaurant-new-york-city.19715.r,694 Third Avenue,New York,NY
Antalia Mediterranean Turkish Restaurant,http://www.seamless.com/food-delivery/antalia-mediterranean-turkish-restaurant-new-york-city.17444.r,17 W 45 Street,NY,NY
Bodrum Turkish Mediterranean Restaurant,http://www.seamless.com/food-delivery/bodrum-turkish-mediterranean-restaurant-new-york-city.4441.r,584 Amsterdam Ave,NY,NY
Cuba Restaurant,http://www.seamless.com/food-delivery/cuba-restaurant-new-york-city.16713.r,222 Thompson Street,New York,NY
Lin's Chinese Restaurant,http://www.seamless.com/food-delivery/lins-chinese-restaurant-ny-metro.18014.r,32 East 23rd St.,New York,NY
Cafe Evergreen,http://www.seamless.com/food-delivery/cafe-evergreen-new-york-city.1729.r,1367 1st Ave.,New York,NY
Calcutta Cuisine of India,http://www.seamless.com/food-delivery/calcutta-cuisine-of-india-manhattan-consumer.3828.r,324 E 6th Street,New York,NY
Sushiya,http://www.seamless.com/food-delivery/sushiya-new-york-city.7687.r,28 West 56th Street,New York,NY
David Burke at Bloomingdale's,http://www.seamless.com/food-delivery/david-burke-at-bloomingdales-new-york-city.7297.r,1000 3rd Avenue,NY,NY
Fresh Tortilla Express,http://www.seamless.com/food-delivery/fresh-tortilla-express-new-york-city.18455.r,206 Varick Street,NY,NY
Sakura of Japan,http://www.seamless.com/food-delivery/sakura-of-japan-new-york-city.71.r,819 2nd Avenue,New York,NY
Squires Diner,http://www.seamless.com/food-delivery/squires-diner-new-york-city.9431.r,80 Beekman St.,New York,NY
The Manchester Diner,http://www.seamless.com/food-delivery/the-manchester-diner-new-york-city.20067.r,2800 Broadway,New York,NY
Cosi (Broad St),http://www.seamless.com/food-delivery/cosi-broad-st-new-york-city.6603.r,55 Broad Street,NY,NY
Bodhi Tree,http://www.seamless.com/food-delivery/bodhi-tree-manhattan-consumer.6587.r,58 3rd Ave,New York,NY
Gracie Cafe,http://www.seamless.com/food-delivery/gracie-cafe-new-york-city.3761.r,1530 York Avenue,New York,NY
Happy Family Chinese and Japanese Restaurant,http://www.seamless.com/food-delivery/happy-family-chinese-and-japanese-restaurant-new-york-city.11411.r,500 West 43rd St.,New York,NY
Cosi (3rd Ave),http://www.seamless.com/food-delivery/cosi-3rd-ave-new-york-city.22451.r,685 3rd Ave.,New York,
Dulce Vida Cafe,http://www.seamless.com/food-delivery/dulce-vida-cafe-new-york-city.18804.r,1219 Lexington Ave,New York,NY
Saffron Garden,http://www.seamless.com/food-delivery/saffron-garden-queens.19818.r,46-11 Skillman Ave,Woodside,NY
Olympic Pita,http://www.seamless.com/food-delivery/olympic-pita-new-york-city.3699.r,58 West 38th Street,New York,NY
Shun Lee Palace,http://www.seamless.com/food-delivery/shun-lee-palace-new-york-city.21.r,155 East 55th Street,New York,NY
Pesce Pasta (Bleecker),http://www.seamless.com/food-delivery/pesce-pasta-bleecker-new-york-city.3445.r,262 Bleecker St,New York,NY
Pesce Pasta (Columbus),http://www.seamless.com/food-delivery/pesce-pasta-columbus-new-york-city.3432.r,625 Columbus,New York,NY
Tasty Cafe,http://www.seamless.com/food-delivery/tasty-cafe-new-york-city.4028.r,2062 Broadway,NY,NY
Bellini Italian Restaurant & Brick Oven Pizzeria,http://www.seamless.com/food-delivery/bellini-italian-restaurant-brick-oven-pizzeria-manhattan-consumer.9771.r,483 Columbus Ave,New York,NY
Brindle Room,http://www.seamless.com/food-delivery/brindle-room-new-york-city.16621.r,277 East 10th St,New York,NY
Brother Jimmy's Union Square,http://www.seamless.com/food-delivery/brother-jimmys-union-square-new-york-city.19275.r,116 E 16th Street,New York,NY
Cafe Gusto,http://www.seamless.com/food-delivery/cafe-gusto-new-york-city.9361.r,111 John St.,New York,NY
Chef 28,http://www.seamless.com/food-delivery/chef-28-new-york-city.17477.r,29 E 28th St,New York,NY
L'yBane,http://www.seamless.com/food-delivery/lybane-new-york-city.7013.r,709 8th Ave.,New York,NY
McGeeâ€™s,http://www.seamless.com/food-delivery/mcgees-new-york-city.4701.r,240 W 55th Street,NY,NY
Monster Sushi (W23rd),http://www.seamless.com/food-delivery/monster-sushi-w23rd-new-york-city.2140.r,158 W 23rd Street,NY,NY
Monster Sushi (46th),http://www.seamless.com/food-delivery/monster-sushi-46th-new-york-city.2285.r,22 W 46th Street,New York,NY
Oficina Latina,http://www.seamless.com/food-delivery/oficina-latina-ny-metro.17299.r,24 Prince St,New York,NY
Pasha,http://www.seamless.com/food-delivery/pasha-new-york-city.1945.r,70 West 71st Street,New York,NY
Pho Sure,http://www.seamless.com/food-delivery/pho-sure-manhattan-consumer.4754.r,120 Christopher Street,New York,NY
Saigon Market,http://www.seamless.com/food-delivery/saigon-market-new-york-city.18760.r,93 University Place,NY,NY
Spice Noodle,http://www.seamless.com/food-delivery/spice-noodle-new-york-city.3409.r,1509 Lexington Ave,New York,NY
Supper,http://www.seamless.com/food-delivery/supper-new-york-city.18205.r,156 E 2nd St,NY,NY
Vin et Fleurs,http://www.seamless.com/food-delivery/vin-et-fleurs-new-york-city.18017.r,69 Thompson Street,New York,NY
Bangkok Heights,http://www.seamless.com/food-delivery/bangkok-heights-new-york-city.8529.r,812 West 181st Street,NY,NY
Buddha Bodai One Vegetarian,http://www.seamless.com/food-delivery/buddha-bodai-one-vegetarian-new-york-city.3197.r,5 Mott Street,New York,NY
Westway Diner,http://www.seamless.com/food-delivery/westway-diner-new-york-city.3988.r,614 9th Avenue,New York,NY
Hampton Gourmet,http://www.seamless.com/food-delivery/hampton-gourmet-new-york-city.6240.r,755 9th Ave,NY,NY
Fusha,http://www.seamless.com/food-delivery/fusha-new-york-city.1721.r,1065 1st Avenue,NY,NY
Qi (43rd St),http://www.seamless.com/food-delivery/qi-43rd-st-new-york-city.19013.r,675 8th Avenue,New York,NY
SUteiShi,http://www.seamless.com/food-delivery/suteishi-new-york-city.3711.r,24 Peck Slip,NY,NY
Gee Whiz Diner,http://www.seamless.com/food-delivery/gee-whiz-diner-new-york-city.951.r,295 Greenwich Street,New York,NY
Ponty Bistro,http://www.seamless.com/food-delivery/ponty-bistro-new-york-city.11209.r,218 3rd Ave,New York,NY
Silver Spurs,http://www.seamless.com/food-delivery/silver-spurs-new-york-city.987.r,490 Laguardia Place,New York,NY
Theatre Row Diner,http://www.seamless.com/food-delivery/theatre-row-diner-new-york-city.16581.r,424 West 42nd St,New York,NY
Artichoke Pizza,http://www.seamless.com/food-delivery/artichoke-pizza-new-york-city.17235.r,114 10th Ave,New York,NY
Coppelia,http://www.seamless.com/food-delivery/coppelia-new-york-city.18242.r,207 W 14th St,NY,NY
Lily's,http://www.seamless.com/food-delivery/lilys-new-york-city.4004.r,31 Oliver St.,NY,NY
Salaam Bombay,http://www.seamless.com/food-delivery/salaam-bombay-new-york-city.691.r,319 Greenwich Avenue,New York,NY
Taco House,http://www.seamless.com/food-delivery/taco-house-new-york-city.4738.r,178 Church St.,New York,NY
Fresco Tortillas (9th Ave),http://www.seamless.com/food-delivery/fresco-tortillas-9th-ave-new-york-city.11468.r,536 9th Ave,New York,NY
Amelia's Diner,http://www.seamless.com/food-delivery/amelias-diner-new-york-city.12704.r,110 Varick St.,New York,NY
Cafe Amore's Pizzeria Ristorante (Chambers Street),http://www.seamless.com/food-delivery/cafe-amores-pizzeria-ristorante-chambers-street-new-york-city.18790.r,147 Chambers St.,New York,NY
Chelsea Square Restaurant,http://www.seamless.com/food-delivery/chelsea-square-restaurant-new-york-city.16733.r,368 W 23rd St,New York,NY
Diablo Royale,http://www.seamless.com/food-delivery/diablo-royale-new-york-city.19098.r,189 W 10th St,New York,NY
Harry's Cafe & Steak,http://www.seamless.com/food-delivery/harrys-cafe-steak-new-york-city.3756.r,1 Hanover Square,New York,NY
Hudson View Restaurant,http://www.seamless.com/food-delivery/hudson-view-restaurant-new-york-city.18162.r,770 W 181st St.,New York,NY
Pick a Bagel (8th Ave),http://www.seamless.com/food-delivery/pick-a-bagel-8th-ave-new-york-city.1494.r,891 Eighth Ave,New York,NY
Eighteen Restaurant,http://www.seamless.com/food-delivery/eighteen-restaurant-new-york-city.7274.r,240 East 81st Street,New York,NY
BLT Fish Shack,http://www.seamless.com/food-delivery/blt-fish-shack-new-york-city.19913.r,21 W 17th Street,NY,NY
Casa Nonna,http://www.seamless.com/food-delivery/casa-nonna-new-york-city.19932.r,310 W 38th St,NY,NY
Fresh & Co. (57th Street),http://www.seamless.com/food-delivery/fresh-co-57th-street-new-york-city.4313.r,45 West 57th Street,NY,NY
Fresh & Co. (Lexington Avenue),http://www.seamless.com/food-delivery/fresh-co-lexington-avenue-new-york-city.5095.r,681 Lexington Avenue,NY,NY
Fresh & Co. (Seventh Avenue),http://www.seamless.com/food-delivery/fresh-co-seventh-avenue-new-york-city.8327.r,363 Seventh Avenue,New York,NY
Garlic New York Pizza Bar,http://www.seamless.com/food-delivery/garlic-new-york-pizza-bar-new-york-city.19789.r,629 Second Avenue,NY,NY
Goodfellas LES,http://www.seamless.com/food-delivery/goodfellas-les-new-york-city.18756.r,144 Orchard Street,NY,NY
Jimmy's BurgerShack (brought to you by Brother Jimmy's),http://www.seamless.com/food-delivery/jimmys-burgershack-brought-to-you-by-brother-jimmys-new-york-city.19639.r,258 West 31st Street,NY,NY
Cosi (3rd Ave),http://www.seamless.com/food-delivery/cosi-3rd-ave-new-york-city.22451.r,685 3rd Ave.,New York,
Minar Indian Restaurant (31st St.),http://www.seamless.com/food-delivery/minar-indian-restaurant-31st-st-new-york-city.4204.r,5 West 31st Street,New York,NY
Minar Indian Restaurant (46th St.),http://www.seamless.com/food-delivery/minar-indian-restaurant-46th-st-new-york-city.4209.r,138 West 46th Street,New York City,NY
Napoli Pizza & Pasta (formerly Dolce Vita Pizzeria),http://www.seamless.com/food-delivery/napoli-pizza-pasta-formerly-dolce-vita-pizzeria-new-york-city.4823.r,152 East 110th St,New York,NY
Obao,http://www.seamless.com/food-delivery/obao-new-york-city.8064.r,222 E 53rd St,NY,NY
Pranna,http://www.seamless.com/food-delivery/pranna-new-york-city.19511.r,79 Madison Avenue,New York,NY
La Silhouette,http://www.seamless.com/food-delivery/la-silhouette-new-york-city.20021.r,362 West 53rd Street,New York,NY
Gigino at Wagner Park,http://www.seamless.com/food-delivery/gigino-at-wagner-park-new-york-city.8591.r,New York,NY,10004
Hunan Park,http://www.seamless.com/food-delivery/hunan-park-new-york-city.17043.r,721 Columbus Ave,New York,NY
John's of 12th Street,http://www.seamless.com/food-delivery/johns-of-12th-street-new-york-city.8500.r,302 E 12th Street,NY,NY
Rice & Beans,http://www.seamless.com/food-delivery/rice-beans-new-york-city.8557.r,744 Ninth Ave,New York,NY
Rye House,http://www.seamless.com/food-delivery/rye-house-new-york-city.4511.r,11 W. 17th St,NY,NY
Warren 77,http://www.seamless.com/food-delivery/warren-77-new-york-city.8123.r,77 Warren St,New York,NY
Aaheli,http://www.seamless.com/food-delivery/aaheli-new-york-city.7718.r,826 9th Ave,New York,NY
Zabb City,http://www.seamless.com/food-delivery/zabb-city-manhattan-consumer.10183.r,244 East 13th St.,New York,NY
Red Egg,http://www.seamless.com/food-delivery/red-egg-new-york-city.16317.r,202 Centre St.,New York,NY
AA Jing,http://www.seamless.com/food-delivery/aa-jing-new-york-city.11400.r,689 9th Ave,New York,NY
Bus Stop Cafe,http://www.seamless.com/food-delivery/bus-stop-cafe-manhattan-consumer.3713.r,597 Hudson Street,New York,NY
California Pizza Kitchen (Park Ave),http://www.seamless.com/food-delivery/california-pizza-kitchen-park-ave-ny-metro.6974.r,440 Park Avenue S.,NY,NY
Gran Piatto d Oro,http://www.seamless.com/food-delivery/gran-piatto-d-oro-new-york-city.19129.r,1429 5th Avenue,NY,NY
Sac's Place,http://www.seamless.com/food-delivery/sacs-place-queens.16684.r,2541 Broadway,Astoria,NY
Adrienne's Pizza Bar,http://www.seamless.com/food-delivery/adriennes-pizza-bar-new-york-city.4671.r,54 Stone St.,New York,NY
Brick Lane Curry House,http://www.seamless.com/food-delivery/brick-lane-curry-house-new-york-city.1628.r,99 2nd Ave.,New York,NY
Dallas BBQ (42nd St.),http://www.seamless.com/food-delivery/dallas-bbq-42nd-st-new-york-city.3861.r,241 West 42nd Street,New York,NY
Dallas BBQ (Chelsea),http://www.seamless.com/food-delivery/dallas-bbq-chelsea-new-york-city.740.r,261 8th Ave,New York,NY
Evergreen Diner,http://www.seamless.com/food-delivery/evergreen-diner-new-york-city.7531.r,145 West 47th Street,New York,NY
Kati,http://www.seamless.com/food-delivery/kati-manhattan-consumer.6764.r,347 E 14th St.,New York,NY
Nobi Sushi,http://www.seamless.com/food-delivery/nobi-sushi-new-york-city.2394.r,437 3rd Avenue,New York,NY
Weng's Palace/Thai Palace,http://www.seamless.com/food-delivery/wengs-palacethai-palace-new-york-city.7073.r,304 West 40th St,NY,NY
China Spice NYC,http://www.seamless.com/food-delivery/china-spice-nyc-new-york-city.17276.r,1588 York Ave,New York,NY
Coopers Tavern,http://www.seamless.com/food-delivery/coopers-tavern-new-york-city.5130.r,481 Eighth Ave,New York,NY
Europan Penn Station,http://www.seamless.com/food-delivery/europan-penn-station-new-york-city.4794.r,1 Penn Plaza,New York,NY
Fatty Crab (Hudson Street),http://www.seamless.com/food-delivery/fatty-crab-hudson-street-new-york-city.17457.r,643 Hudson Street,NY,NY
The Organic Grill,http://www.seamless.com/food-delivery/the-organic-grill-new-york-city.7431.r,123 1st Ave,New York,NY
V-Note,http://www.seamless.com/food-delivery/vnote-new-york-city.16455.r,1522 First Ave,New York,NY
Giorgione,http://www.seamless.com/food-delivery/giorgione-new-york-city.19455.r,307 Spring Street,New York,NY
Haru Wall St,http://www.seamless.com/food-delivery/haru-wall-st-new-york-city.9222.r,1 Wall Street Court,New York,NY
Aroma Espresso Bar (72nd St),http://www.seamless.com/food-delivery/aroma-espresso-bar-72nd-st-new-york-city.8805.r,161 W 72nd St,NY,NY
Aroma Espresso Bar (Midtown),http://www.seamless.com/food-delivery/aroma-espresso-bar-midtown-new-york-city.4547.r,205 East 42nd St,NY,NY
Rasa (Formerly known as Sushi Yawa),http://www.seamless.com/food-delivery/rasa-formerly-known-as-sushi-yawa-manhattan-consumer.8347.r,25 W 8th St.,New York,NY
Cafe Classico Glatt Kosher Restaurant,http://www.seamless.com/food-delivery/cafe-classico-glatt-kosher-restaurant-new-york-city.11.r,35 West 57th Street,New York,NY
Abboccato,http://www.seamless.com/food-delivery/abboccato-new-york-city.10576.r,136 West 55th St.,New York,NY
Baburchi's,http://www.seamless.com/food-delivery/baburchis-manhattan-consumer.9469.r,90 West 3rd St.,New York,NY
Dai Hachi Sushi,http://www.seamless.com/food-delivery/dai-hachi-sushi-new-york-city.11403.r,303 E. 56th St.,New York,NY
Crudo Restaurant,http://www.seamless.com/food-delivery/crudo-restaurant-new-york-city.16992.r,235 West 35th Street,NY,NY
International Food House,http://www.seamless.com/food-delivery/international-food-house-new-york-city.17181.r,217 Dyckman Street,New York,NY
Fusha,http://www.seamless.com/food-delivery/fusha-new-york-city.1721.r,1065 1st Avenue,NY,NY
Qi (43rd St),http://www.seamless.com/food-delivery/qi-43rd-st-new-york-city.19013.r,675 8th Avenue,New York,NY
SUteiShi,http://www.seamless.com/food-delivery/suteishi-new-york-city.3711.r,24 Peck Slip,NY,NY
Gee Whiz Diner,http://www.seamless.com/food-delivery/gee-whiz-diner-new-york-city.951.r,295 Greenwich Street,New York,NY
Ponty Bistro,http://www.seamless.com/food-delivery/ponty-bistro-new-york-city.11209.r,218 3rd Ave,New York,NY
Silver Spurs,http://www.seamless.com/food-delivery/silver-spurs-new-york-city.987.r,490 Laguardia Place,New York,NY
Theatre Row Diner,http://www.seamless.com/food-delivery/theatre-row-diner-new-york-city.16581.r,424 West 42nd St,New York,NY
Artichoke Pizza,http://www.seamless.com/food-delivery/artichoke-pizza-new-york-city.17235.r,114 10th Ave,New York,NY
Coppelia,http://www.seamless.com/food-delivery/coppelia-new-york-city.18242.r,207 W 14th St,NY,NY
Lily's,http://www.seamless.com/food-delivery/lilys-new-york-city.4004.r,31 Oliver St.,NY,NY
Salaam Bombay,http://www.seamless.com/food-delivery/salaam-bombay-new-york-city.691.r,319 Greenwich Avenue,New York,NY
Taco House,http://www.seamless.com/food-delivery/taco-house-new-york-city.4738.r,178 Church St.,New York,NY
Fresco Tortillas (9th Ave),http://www.seamless.com/food-delivery/fresco-tortillas-9th-ave-new-york-city.11468.r,536 9th Ave,New York,NY
Amelia's Diner,http://www.seamless.com/food-delivery/amelias-diner-new-york-city.12704.r,110 Varick St.,New York,NY
Cafe Amore's Pizzeria Ristorante (Chambers Street),http://www.seamless.com/food-delivery/cafe-amores-pizzeria-ristorante-chambers-street-new-york-city.18790.r,147 Chambers St.,New York,NY
Chelsea Square Restaurant,http://www.seamless.com/food-delivery/chelsea-square-restaurant-new-york-city.16733.r,368 W 23rd St,New York,NY
Diablo Royale,http://www.seamless.com/food-delivery/diablo-royale-new-york-city.19098.r,189 W 10th St,New York,NY
Harry's Cafe & Steak,http://www.seamless.com/food-delivery/harrys-cafe-steak-new-york-city.3756.r,1 Hanover Square,New York,NY
Hudson View Restaurant,http://www.seamless.com/food-delivery/hudson-view-restaurant-new-york-city.18162.r,770 W 181st St.,New York,NY
Pick a Bagel (8th Ave),http://www.seamless.com/food-delivery/pick-a-bagel-8th-ave-new-york-city.1494.r,891 Eighth Ave,New York,NY
Eighteen Restaurant,http://www.seamless.com/food-delivery/eighteen-restaurant-new-york-city.7274.r,240 East 81st Street,New York,NY
BLT Fish Shack,http://www.seamless.com/food-delivery/blt-fish-shack-new-york-city.19913.r,21 W 17th Street,NY,NY
Casa Nonna,http://www.seamless.com/food-delivery/casa-nonna-new-york-city.19932.r,310 W 38th St,NY,NY
Fresh & Co. (57th Street),http://www.seamless.com/food-delivery/fresh-co-57th-street-new-york-city.4313.r,45 West 57th Street,NY,NY
Fresh & Co. (Lexington Avenue),http://www.seamless.com/food-delivery/fresh-co-lexington-avenue-new-york-city.5095.r,681 Lexington Avenue,NY,NY
Fresh & Co. (Seventh Avenue),http://www.seamless.com/food-delivery/fresh-co-seventh-avenue-new-york-city.8327.r,363 Seventh Avenue,New York,NY
Garlic New York Pizza Bar,http://www.seamless.com/food-delivery/garlic-new-york-pizza-bar-new-york-city.19789.r,629 Second Avenue,NY,NY
Goodfellas LES,http://www.seamless.com/food-delivery/goodfellas-les-new-york-city.18756.r,144 Orchard Street,NY,NY
Jimmy's BurgerShack (brought to you by Brother Jimmy's),http://www.seamless.com/food-delivery/jimmys-burgershack-brought-to-you-by-brother-jimmys-new-york-city.19639.r,258 West 31st Street,NY,NY
Minar Indian Restaurant (31st St.),http://www.seamless.com/food-delivery/minar-indian-restaurant-31st-st-new-york-city.4204.r,5 West 31st Street,New York,NY
Minar Indian Restaurant (46th St.),http://www.seamless.com/food-delivery/minar-indian-restaurant-46th-st-new-york-city.4209.r,138 West 46th Street,New York City,NY
Napoli Pizza & Pasta (formerly Dolce Vita Pizzeria),http://www.seamless.com/food-delivery/napoli-pizza-pasta-formerly-dolce-vita-pizzeria-new-york-city.4823.r,152 East 110th St,New York,NY
Obao,http://www.seamless.com/food-delivery/obao-new-york-city.8064.r,222 E 53rd St,NY,NY
Pranna,http://www.seamless.com/food-delivery/pranna-new-york-city.19511.r,79 Madison Avenue,New York,NY
La Silhouette,http://www.seamless.com/food-delivery/la-silhouette-new-york-city.20021.r,362 West 53rd Street,New York,NY
Gigino at Wagner Park,http://www.seamless.com/food-delivery/gigino-at-wagner-park-new-york-city.8591.r,New York,NY,10004
Hunan Park,http://www.seamless.com/food-delivery/hunan-park-new-york-city.17043.r,721 Columbus Ave,New York,NY
John's of 12th Street,http://www.seamless.com/food-delivery/johns-of-12th-street-new-york-city.8500.r,302 E 12th Street,NY,NY
Rice & Beans,http://www.seamless.com/food-delivery/rice-beans-new-york-city.8557.r,744 Ninth Ave,New York,NY
Rye House,http://www.seamless.com/food-delivery/rye-house-new-york-city.4511.r,11 W. 17th St,NY,NY
Warren 77,http://www.seamless.com/food-delivery/warren-77-new-york-city.8123.r,77 Warren St,New York,NY
Aaheli,http://www.seamless.com/food-delivery/aaheli-new-york-city.7718.r,826 9th Ave,New York,NY
Zabb City,http://www.seamless.com/food-delivery/zabb-city-manhattan-consumer.10183.r,244 East 13th St.,New York,NY
Red Egg,http://www.seamless.com/food-delivery/red-egg-new-york-city.16317.r,202 Centre St.,New York,NY
AA Jing,http://www.seamless.com/food-delivery/aa-jing-new-york-city.11400.r,689 9th Ave,New York,NY
Bus Stop Cafe,http://www.seamless.com/food-delivery/bus-stop-cafe-manhattan-consumer.3713.r,597 Hudson Street,New York,NY
California Pizza Kitchen (Park Ave),http://www.seamless.com/food-delivery/california-pizza-kitchen-park-ave-ny-metro.6974.r,440 Park Avenue S.,NY,NY
Gran Piatto d Oro,http://www.seamless.com/food-delivery/gran-piatto-d-oro-new-york-city.19129.r,1429 5th Avenue,NY,NY
Sac's Place,http://www.seamless.com/food-delivery/sacs-place-queens.16684.r,2541 Broadway,Astoria,NY
Adrienne's Pizza Bar,http://www.seamless.com/food-delivery/adriennes-pizza-bar-new-york-city.4671.r,54 Stone St.,New York,NY
Brick Lane Curry House,http://www.seamless.com/food-delivery/brick-lane-curry-house-new-york-city.1628.r,99 2nd Ave.,New York,NY
Dallas BBQ (42nd St.),http://www.seamless.com/food-delivery/dallas-bbq-42nd-st-new-york-city.3861.r,241 West 42nd Street,New York,NY
Dallas BBQ (Chelsea),http://www.seamless.com/food-delivery/dallas-bbq-chelsea-new-york-city.740.r,261 8th Ave,New York,NY
Evergreen Diner,http://www.seamless.com/food-delivery/evergreen-diner-new-york-city.7531.r,145 West 47th Street,New York,NY
Kati,http://www.seamless.com/food-delivery/kati-manhattan-consumer.6764.r,347 E 14th St.,New York,NY
Nobi Sushi,http://www.seamless.com/food-delivery/nobi-sushi-new-york-city.2394.r,437 3rd Avenue,New York,NY
Weng's Palace/Thai Palace,http://www.seamless.com/food-delivery/wengs-palacethai-palace-new-york-city.7073.r,304 West 40th St,NY,NY
China Spice NYC,http://www.seamless.com/food-delivery/china-spice-nyc-new-york-city.17276.r,1588 York Ave,New York,NY
Coopers Tavern,http://www.seamless.com/food-delivery/coopers-tavern-new-york-city.5130.r,481 Eighth Ave,New York,NY
Europan Penn Station,http://www.seamless.com/food-delivery/europan-penn-station-new-york-city.4794.r,1 Penn Plaza,New York,NY
Fatty Crab (Hudson Street),http://www.seamless.com/food-delivery/fatty-crab-hudson-street-new-york-city.17457.r,643 Hudson Street,NY,NY
The Organic Grill,http://www.seamless.com/food-delivery/the-organic-grill-new-york-city.7431.r,123 1st Ave,New York,NY
V-Note,http://www.seamless.com/food-delivery/vnote-new-york-city.16455.r,1522 First Ave,New York,NY
Giorgione,http://www.seamless.com/food-delivery/giorgione-new-york-city.19455.r,307 Spring Street,New York,NY
Haru Wall St,http://www.seamless.com/food-delivery/haru-wall-st-new-york-city.9222.r,1 Wall Street Court,New York,NY
Aroma Espresso Bar (72nd St),http://www.seamless.com/food-delivery/aroma-espresso-bar-72nd-st-new-york-city.8805.r,161 W 72nd St,NY,NY
Aroma Espresso Bar (Midtown),http://www.seamless.com/food-delivery/aroma-espresso-bar-midtown-new-york-city.4547.r,205 East 42nd St,NY,NY
Rasa (Formerly known as Sushi Yawa),http://www.seamless.com/food-delivery/rasa-formerly-known-as-sushi-yawa-manhattan-consumer.8347.r,25 W 8th St.,New York,NY
Cafe Classico Glatt Kosher Restaurant,http://www.seamless.com/food-delivery/cafe-classico-glatt-kosher-restaurant-new-york-city.11.r,35 West 57th Street,New York,NY
Abboccato,http://www.seamless.com/food-delivery/abboccato-new-york-city.10576.r,136 West 55th St.,New York,NY
Baburchi's,http://www.seamless.com/food-delivery/baburchis-manhattan-consumer.9469.r,90 West 3rd St.,New York,NY
Dai Hachi Sushi,http://www.seamless.com/food-delivery/dai-hachi-sushi-new-york-city.11403.r,303 E. 56th St.,New York,NY
Crudo Restaurant,http://www.seamless.com/food-delivery/crudo-restaurant-new-york-city.16992.r,235 West 35th Street,NY,NY
International Food House,http://www.seamless.com/food-delivery/international-food-house-new-york-city.17181.r,217 Dyckman Street,New York,NY
La Corsa,http://www.seamless.com/food-delivery/la-corsa-new-york-city.17997.r,123 E. 110th Street,New York,NY
Nirvana (Lex),http://www.seamless.com/food-delivery/nirvana-lex-new-york-city.10617.r,346 Lexington Ave,New York,NY
Sushi Suki,http://www.seamless.com/food-delivery/sushi-suki-new-york-city.3505.r,1577 York Avenue,New York,NY
Texas Rotisserie & Grill (UWS),http://www.seamless.com/food-delivery/texas-rotisserie-grill-uws-new-york-city.11148.r,2581 Broadway,New York,NY
Adriatic Italian Restaurant,http://www.seamless.com/food-delivery/adriatic-italian-restaurant-new-york-city.19232.r,321 1st Avenue,NY,NY
Agora Turkish Restaurant,http://www.seamless.com/food-delivery/agora-turkish-restaurant-new-york-city.19619.r,1565 2nd Avenue,NY,NY
Amaze Restaurant,http://www.seamless.com/food-delivery/amaze-restaurant-new-york-city.19715.r,694 Third Avenue,New York,NY
Antalia Mediterranean Turkish Restaurant,http://www.seamless.com/food-delivery/antalia-mediterranean-turkish-restaurant-new-york-city.17444.r,17 W 45 Street,NY,NY
Bodrum Turkish Mediterranean Restaurant,http://www.seamless.com/food-delivery/bodrum-turkish-mediterranean-restaurant-new-york-city.4441.r,584 Amsterdam Ave,NY,NY
Cuba Restaurant,http://www.seamless.com/food-delivery/cuba-restaurant-new-york-city.16713.r,222 Thompson Street,New York,NY
Lin's Chinese Restaurant,http://www.seamless.com/food-delivery/lins-chinese-restaurant-ny-metro.18014.r,32 East 23rd St.,New York,NY
Cosi (3rd Ave),http://www.seamless.com/food-delivery/cosi-3rd-ave-new-york-city.22451.r,685 3rd Ave.,New York,
Cafe Evergreen,http://www.seamless.com/food-delivery/cafe-evergreen-new-york-city.1729.r,1367 1st Ave.,New York,NY
Calcutta Cuisine of India,http://www.seamless.com/food-delivery/calcutta-cuisine-of-india-manhattan-consumer.3828.r,324 E 6th Street,New York,NY
Sushiya,http://www.seamless.com/food-delivery/sushiya-new-york-city.7687.r,28 West 56th Street,New York,NY
David Burke at Bloomingdale's,http://www.seamless.com/food-delivery/david-burke-at-bloomingdales-new-york-city.7297.r,1000 3rd Avenue,NY,NY
Fresh Tortilla Express,http://www.seamless.com/food-delivery/fresh-tortilla-express-new-york-city.18455.r,206 Varick Street,NY,NY
Sakura of Japan,http://www.seamless.com/food-delivery/sakura-of-japan-new-york-city.71.r,819 2nd Avenue,New York,NY
Squires Diner,http://www.seamless.com/food-delivery/squires-diner-new-york-city.9431.r,80 Beekman St.,New York,NY
The Manchester Diner,http://www.seamless.com/food-delivery/the-manchester-diner-new-york-city.20067.r,2800 Broadway,New York,NY
Cosi (Broad St),http://www.seamless.com/food-delivery/cosi-broad-st-new-york-city.6603.r,55 Broad Street,NY,NY
Bodhi Tree,http://www.seamless.com/food-delivery/bodhi-tree-manhattan-consumer.6587.r,58 3rd Ave,New York,NY
Gracie Cafe,http://www.seamless.com/food-delivery/gracie-cafe-new-york-city.3761.r,1530 York Avenue,New York,NY
Happy Family Chinese and Japanese Restaurant,http://www.seamless.com/food-delivery/happy-family-chinese-and-japanese-restaurant-new-york-city.11411.r,500 West 43rd St.,New York,NY
Dulce Vida Cafe,http://www.seamless.com/food-delivery/dulce-vida-cafe-new-york-city.18804.r,1219 Lexington Ave,New York,NY
Saffron Garden,http://www.seamless.com/food-delivery/saffron-garden-queens.19818.r,46-11 Skillman Ave,Woodside,NY
Olympic Pita,http://www.seamless.com/food-delivery/olympic-pita-new-york-city.3699.r,58 West 38th Street,New York,NY
Shun Lee Palace,http://www.seamless.com/food-delivery/shun-lee-palace-new-york-city.21.r,155 East 55th Street,New York,NY
Pesce Pasta (Bleecker),http://www.seamless.com/food-delivery/pesce-pasta-bleecker-new-york-city.3445.r,262 Bleecker St,New York,NY
Pesce Pasta (Columbus),http://www.seamless.com/food-delivery/pesce-pasta-columbus-new-york-city.3432.r,625 Columbus,New York,NY
Tasty Cafe,http://www.seamless.com/food-delivery/tasty-cafe-new-york-city.4028.r,2062 Broadway,NY,NY
Bellini Italian Restaurant & Brick Oven Pizzeria,http://www.seamless.com/food-delivery/bellini-italian-restaurant-brick-oven-pizzeria-manhattan-consumer.9771.r,483 Columbus Ave,New York,NY
Brindle Room,http://www.seamless.com/food-delivery/brindle-room-new-york-city.16621.r,277 East 10th St,New York,NY
Brother Jimmy's Union Square,http://www.seamless.com/food-delivery/brother-jimmys-union-square-new-york-city.19275.r,116 E 16th Street,New York,NY
Cafe Gusto,http://www.seamless.com/food-delivery/cafe-gusto-new-york-city.9361.r,111 John St.,New York,NY
Chef 28,http://www.seamless.com/food-delivery/chef-28-new-york-city.17477.r,29 E 28th St,New York,NY
L'yBane,http://www.seamless.com/food-delivery/lybane-new-york-city.7013.r,709 8th Ave.,New York,NY
McGeeâ€™s,http://www.seamless.com/food-delivery/mcgees-new-york-city.4701.r,240 W 55th Street,NY,NY
Monster Sushi (W23rd),http://www.seamless.com/food-delivery/monster-sushi-w23rd-new-york-city.2140.r,158 W 23rd Street,NY,NY
Monster Sushi (46th),http://www.seamless.com/food-delivery/monster-sushi-46th-new-york-city.2285.r,22 W 46th Street,New York,NY
Oficina Latina,http://www.seamless.com/food-delivery/oficina-latina-ny-metro.17299.r,24 Prince St,New York,NY
Pasha,http://www.seamless.com/food-delivery/pasha-new-york-city.1945.r,70 West 71st Street,New York,NY
Pho Sure,http://www.seamless.com/food-delivery/pho-sure-manhattan-consumer.4754.r,120 Christopher Street,New York,NY
Saigon Market,http://www.seamless.com/food-delivery/saigon-market-new-york-city.18760.r,93 University Place,NY,NY
Spice Noodle,http://www.seamless.com/food-delivery/spice-noodle-new-york-city.3409.r,1509 Lexington Ave,New York,NY
Supper,http://www.seamless.com/food-delivery/supper-new-york-city.18205.r,156 E 2nd St,NY,NY
Vin et Fleurs,http://www.seamless.com/food-delivery/vin-et-fleurs-new-york-city.18017.r,69 Thompson Street,New York,NY
Bangkok Heights,http://www.seamless.com/food-delivery/bangkok-heights-new-york-city.8529.r,812 West 181st Street,NY,NY
Buddha Bodai One Vegetarian,http://www.seamless.com/food-delivery/buddha-bodai-one-vegetarian-new-york-city.3197.r,5 Mott Street,New York,NY
Westway Diner,http://www.seamless.com/food-delivery/westway-diner-new-york-city.3988.r,614 9th Avenue,New York,NY
Hampton Gourmet,http://www.seamless.com/food-delivery/hampton-gourmet-new-york-city.6240.r,755 9th Ave,NY,NY
Hamptons Market Place (217 1st Ave),http://www.seamless.com/food-delivery/hamptons-market-place-217-1st-ave-new-york-city.19764.r,217 1st Ave,New York,NY
Hamptons Marketplace (30th),http://www.seamless.com/food-delivery/hamptons-marketplace-30th-new-york-city.18189.r,312 11th Avenue,NY,NY
Liberty Deli/Mrs. Field's,http://www.seamless.com/food-delivery/liberty-delimrs-fields-new-york-city.4924.r,30 Rockefeller Plaza,NY,NY
The Path Cafe,http://www.seamless.com/food-delivery/the-path-cafe-manhattan-consumer.5522.r,131 Christopher St.,NY,NY
Yummy Sushi (1st Ave),http://www.seamless.com/food-delivery/yummy-sushi-1st-ave-new-york-city.16878.r,1758 First Avenue,New York,NY
Burger Burger,http://www.seamless.com/food-delivery/burger-burger-new-york-city.3759.r,77 Pearl Street,NY,NY
Express Manna Kitchen,http://www.seamless.com/food-delivery/express-manna-kitchen-new-york-city.9425.r,28 East 18th St.,New York,NY
Amber (West Village),http://www.seamless.com/food-delivery/amber-west-village-new-york-city.5951.r,135 Christopher Street,New York,NY
Havana Alma de Cuba,http://www.seamless.com/food-delivery/havana-alma-de-cuba-new-york-city.3633.r,94 Christopher Street,New York,NY
Sophie's Cuban Cuisine (23rd St.),http://www.seamless.com/food-delivery/sophies-cuban-cuisine-23rd-st-new-york-city.11353.r,28 East 23rd St.,New York,NY
Sophie's Cuban Cuisine (Chambers St.),http://www.seamless.com/food-delivery/sophies-cuban-cuisine-chambers-st-new-york-city.10040.r,96 Chambers St.,New York,NY
Sophie's Cuban Cuisine (Lexington),http://www.seamless.com/food-delivery/sophies-cuban-cuisine-lexington-new-york-city.11351.r,369 Lexington Ave,New York,NY
Aangan,http://www.seamless.com/food-delivery/aangan-new-york-city.4698.r,2701 Broadway,New York,NY
Majestic Deli,http://www.seamless.com/food-delivery/majestic-deli-new-york-city.1256.r,200 W. 50th Street,New York,NY
Premier Deli,http://www.seamless.com/food-delivery/premier-deli-manhattan-consumer.4777.r,856 7th Ave,New York,NY
Coppolas East,http://www.seamless.com/food-delivery/coppolas-east-new-york-city.19946.r,378 3rd Avenue,New York,NY
94 Corner Cafe,http://www.seamless.com/food-delivery/94-corner-cafe-new-york-city.7437.r,2518 Broadway,NY,NY
Bello Italian Cuisine,http://www.seamless.com/food-delivery/bello-italian-cuisine-new-york-city.16863.r,863 9th Avenue,New York,NY
Ciao Bella Napoli Restaurant (7th Ave),http://www.seamless.com/food-delivery/ciao-bella-napoli-restaurant-7th-ave-new-york-city.1199.r,257 Seventh Avenue,New York,NY
Cinema Brasserie,http://www.seamless.com/food-delivery/cinema-brasserie-new-york-city.645.r,2 East 45th Street,New York,NY
Cipriani Le Specialita,http://www.seamless.com/food-delivery/cipriani-le-specialita-new-york-city.5737.r,110 East 42nd Street,New York,NY
Essex World Cafe,http://www.seamless.com/food-delivery/essex-world-cafe-new-york-city.1354.r,112 Liberty Street,NY,NY
Market Diner,http://www.seamless.com/food-delivery/market-diner-new-york-city.10029.r,572 11th Ave,New York,NY
Ravagh,http://www.seamless.com/food-delivery/ravagh-new-york-city.810.r,11 East 30th Street,New York,NY
Stage Door Deli (Vesey St),http://www.seamless.com/food-delivery/stage-door-deli-vesey-st-new-york-city.9368.r,26 Vesey St.,New York,NY
Bread Market Cafe,http://www.seamless.com/food-delivery/bread-market-cafe-new-york-city.2281.r,1290 Ave Of The Americas,New York,NY
Cha Pa's Noodles and Grill,http://www.seamless.com/food-delivery/cha-pas-noodles-and-grill-new-york-city.19460.r,314 West 52nd Street,NY,NY
Chickpea (45th Street),http://www.seamless.com/food-delivery/chickpea-45th-street-new-york-city.17513.r,45 E 45th Street,New York,NY
Chickpea (CityCorp Bldg),http://www.seamless.com/food-delivery/chickpea-citycorp-bldg-new-york-city.17957.r,601 Lexington Avenue,NY,NY
City Chow Cafe (Lexington),http://www.seamless.com/food-delivery/city-chow-cafe-lexington-new-york-city.2283.r,420 Lexington Ave,New York,NY
Digby's Cafe,http://www.seamless.com/food-delivery/digbys-cafe-new-york-city.1244.r,666 Fifth Avenue,New York,NY
Hanci Turkish Cuisine,http://www.seamless.com/food-delivery/hanci-turkish-cuisine-new-york-city.7793.r,854 10th Avenue,New York,NY
Melt Shop,http://www.seamless.com/food-delivery/melt-shop-new-york-city.17990.r,601 Lexington Avenue,New York,NY
Teresa's Brick Oven Pizza & Cafe,http://www.seamless.com/food-delivery/teresas-brick-oven-pizza-cafe-new-york-city.824.r,51 West 51st Street,New York,NY
Toloache Taqueria,http://www.seamless.com/food-delivery/toloache-taqueria-new-york-city.17274.r,83 Maiden Lane,New York,NY
Insomnia Cookies (Murray Hill),http://www.seamless.com/food-delivery/insomnia-cookies-murray-hill-new-york-city.20266.r,482 3rd Ave,NY,NY
Insomnia Cookies (NYU),http://www.seamless.com/food-delivery/insomnia-cookies-nyu-new-york-city.9184.r,116 Macdougal Street,NY,NY
Insomnia Cookies (UES),http://www.seamless.com/food-delivery/insomnia-cookies-ues-new-york-city.20267.r,1579 2nd Avenue,NY,NY
Insomnia Cookies (UWS),http://www.seamless.com/food-delivery/insomnia-cookies-uws-new-york-city.16439.r,405 Amsterdam Avenue,New York,NY
Amber (3rd Ave),http://www.seamless.com/food-delivery/amber-3rd-ave-new-york-city.9533.r,381 3rd Avenue,New York,NY
Benjamin Steakhouse,http://www.seamless.com/food-delivery/benjamin-steakhouse-new-york-city.10425.r,52 East 41st St.,New York,NY
Connollys Irish Pub & Restaurant,http://www.seamless.com/food-delivery/connollys-irish-pub-restaurant-new-york-city.3362.r,121 West 45th Street,New York,NY
Pad Thai,http://www.seamless.com/food-delivery/pad-thai-new-york-city.1687.r,409a 8th Ave,NY,NY
Pars Grill House & Bar,http://www.seamless.com/food-delivery/pars-grill-house-bar-new-york-city.8121.r,249 W 26th St,New York,NY
Pera Mediterranean Brasserie,http://www.seamless.com/food-delivery/pera-mediterranean-brasserie-new-york-city.9360.r,303 Madison Avenue,New York,NY
Valent & Cook,http://www.seamless.com/food-delivery/valent-cook-new-york-city.4249.r,74 5th Avenue,NY,NY
Cafe Isadora's (Formerly Isadora's Cafe),http://www.seamless.com/food-delivery/cafe-isadoras-formerly-isadoras-cafe-new-york-city.2020.r,16 East 52nd Street,New York,NY
Gracie Mews Diner,http://www.seamless.com/food-delivery/gracie-mews-diner-new-york-city.7669.r,1550 First Avenue,New York,NY
Bangkok 2 Thai,http://www.seamless.com/food-delivery/bangkok-2-thai-manhattan-consumer.9953.r,349 1st Ave,New York,NY
Concrete Restaurant,http://www.seamless.com/food-delivery/concrete-restaurant-new-york-city.6999.r,320 W 37th Street,New York,NY
Fusha,http://www.seamless.com/food-delivery/fusha-new-york-city.1721.r,1065 1st Avenue,NY,NY
Qi (43rd St),http://www.seamless.com/food-delivery/qi-43rd-st-new-york-city.19013.r,675 8th Avenue,New York,NY
SUteiShi,http://www.seamless.com/food-delivery/suteishi-new-york-city.3711.r,24 Peck Slip,NY,NY
Gee Whiz Diner,http://www.seamless.com/food-delivery/gee-whiz-diner-new-york-city.951.r,295 Greenwich Street,New York,NY
Ponty Bistro,http://www.seamless.com/food-delivery/ponty-bistro-new-york-city.11209.r,218 3rd Ave,New York,NY
Silver Spurs,http://www.seamless.com/food-delivery/silver-spurs-new-york-city.987.r,490 Laguardia Place,New York,NY
Theatre Row Diner,http://www.seamless.com/food-delivery/theatre-row-diner-new-york-city.16581.r,424 West 42nd St,New York,NY
Artichoke Pizza,http://www.seamless.com/food-delivery/artichoke-pizza-new-york-city.17235.r,114 10th Ave,New York,NY
Coppelia,http://www.seamless.com/food-delivery/coppelia-new-york-city.18242.r,207 W 14th St,NY,NY
Lily's,http://www.seamless.com/food-delivery/lilys-new-york-city.4004.r,31 Oliver St.,NY,NY
Salaam Bombay,http://www.seamless.com/food-delivery/salaam-bombay-new-york-city.691.r,319 Greenwich Avenue,New York,NY
Taco House,http://www.seamless.com/food-delivery/taco-house-new-york-city.4738.r,178 Church St.,New York,NY
Fresco Tortillas (9th Ave),http://www.seamless.com/food-delivery/fresco-tortillas-9th-ave-new-york-city.11468.r,536 9th Ave,New York,NY
Amelia's Diner,http://www.seamless.com/food-delivery/amelias-diner-new-york-city.12704.r,110 Varick St.,New York,NY
Cafe Amore's Pizzeria Ristorante (Chambers Street),http://www.seamless.com/food-delivery/cafe-amores-pizzeria-ristorante-chambers-street-new-york-city.18790.r,147 Chambers St.,New York,NY
Chelsea Square Restaurant,http://www.seamless.com/food-delivery/chelsea-square-restaurant-new-york-city.16733.r,368 W 23rd St,New York,NY
Diablo Royale,http://www.seamless.com/food-delivery/diablo-royale-new-york-city.19098.r,189 W 10th St,New York,NY
Harry's Cafe & Steak,http://www.seamless.com/food-delivery/harrys-cafe-steak-new-york-city.3756.r,1 Hanover Square,New York,NY
Hudson View Restaurant,http://www.seamless.com/food-delivery/hudson-view-restaurant-new-york-city.18162.r,770 W 181st St.,New York,NY
Pick a Bagel (8th Ave),http://www.seamless.com/food-delivery/pick-a-bagel-8th-ave-new-york-city.1494.r,891 Eighth Ave,New York,NY
Eighteen Restaurant,http://www.seamless.com/food-delivery/eighteen-restaurant-new-york-city.7274.r,240 East 81st Street,New York,NY
BLT Fish Shack,http://www.seamless.com/food-delivery/blt-fish-shack-new-york-city.19913.r,21 W 17th Street,NY,NY
Casa Nonna,http://www.seamless.com/food-delivery/casa-nonna-new-york-city.19932.r,310 W 38th St,NY,NY
Fresh & Co. (57th Street),http://www.seamless.com/food-delivery/fresh-co-57th-street-new-york-city.4313.r,45 West 57th Street,NY,NY
Fresh & Co. (Lexington Avenue),http://www.seamless.com/food-delivery/fresh-co-lexington-avenue-new-york-city.5095.r,681 Lexington Avenue,NY,NY
Fresh & Co. (Seventh Avenue),http://www.seamless.com/food-delivery/fresh-co-seventh-avenue-new-york-city.8327.r,363 Seventh Avenue,New York,NY
Garlic New York Pizza Bar,http://www.seamless.com/food-delivery/garlic-new-york-pizza-bar-new-york-city.19789.r,629 Second Avenue,NY,NY
Goodfellas LES,http://www.seamless.com/food-delivery/goodfellas-les-new-york-city.18756.r,144 Orchard Street,NY,NY
Jimmy's BurgerShack (brought to you by Brother Jimmy's),http://www.seamless.com/food-delivery/jimmys-burgershack-brought-to-you-by-brother-jimmys-new-york-city.19639.r,258 West 31st Street,NY,NY
Minar Indian Restaurant (31st St.),http://www.seamless.com/food-delivery/minar-indian-restaurant-31st-st-new-york-city.4204.r,5 West 31st Street,New York,NY
Minar Indian Restaurant (46th St.),http://www.seamless.com/food-delivery/minar-indian-restaurant-46th-st-new-york-city.4209.r,138 West 46th Street,New York City,NY
Napoli Pizza & Pasta (formerly Dolce Vita Pizzeria),http://www.seamless.com/food-delivery/napoli-pizza-pasta-formerly-dolce-vita-pizzeria-new-york-city.4823.r,152 East 110th St,New York,NY
Obao,http://www.seamless.com/food-delivery/obao-new-york-city.8064.r,222 E 53rd St,NY,NY
Pranna,http://www.seamless.com/food-delivery/pranna-new-york-city.19511.r,79 Madison Avenue,New York,NY
La Silhouette,http://www.seamless.com/food-delivery/la-silhouette-new-york-city.20021.r,362 West 53rd Street,New York,NY
Gigino at Wagner Park,http://www.seamless.com/food-delivery/gigino-at-wagner-park-new-york-city.8591.r,New York,NY,10004
Hunan Park,http://www.seamless.com/food-delivery/hunan-park-new-york-city.17043.r,721 Columbus Ave,New York,NY
John's of 12th Street,http://www.seamless.com/food-delivery/johns-of-12th-street-new-york-city.8500.r,302 E 12th Street,NY,NY
Rice & Beans,http://www.seamless.com/food-delivery/rice-beans-new-york-city.8557.r,744 Ninth Ave,New York,NY
Rye House,http://www.seamless.com/food-delivery/rye-house-new-york-city.4511.r,11 W. 17th St,NY,NY
Warren 77,http://www.seamless.com/food-delivery/warren-77-new-york-city.8123.r,77 Warren St,New York,NY
Aaheli,http://www.seamless.com/food-delivery/aaheli-new-york-city.7718.r,826 9th Ave,New York,NY
Cosi (3rd Ave),http://www.seamless.com/food-delivery/cosi-3rd-ave-new-york-city.22451.r,685 3rd Ave.,New York,
Zabb City,http://www.seamless.com/food-delivery/zabb-city-manhattan-consumer.10183.r,244 East 13th St.,New York,NY
Red Egg,http://www.seamless.com/food-delivery/red-egg-new-york-city.16317.r,202 Centre St.,New York,NY
AA Jing,http://www.seamless.com/food-delivery/aa-jing-new-york-city.11400.r,689 9th Ave,New York,NY
Bus Stop Cafe,http://www.seamless.com/food-delivery/bus-stop-cafe-manhattan-consumer.3713.r,597 Hudson Street,New York,NY
California Pizza Kitchen (Park Ave),http://www.seamless.com/food-delivery/california-pizza-kitchen-park-ave-ny-metro.6974.r,440 Park Avenue S.,NY,NY
Gran Piatto d Oro,http://www.seamless.com/food-delivery/gran-piatto-d-oro-new-york-city.19129.r,1429 5th Avenue,NY,NY
Sac's Place,http://www.seamless.com/food-delivery/sacs-place-queens.16684.r,2541 Broadway,Astoria,NY
Adrienne's Pizza Bar,http://www.seamless.com/food-delivery/adriennes-pizza-bar-new-york-city.4671.r,54 Stone St.,New York,NY
Brick Lane Curry House,http://www.seamless.com/food-delivery/brick-lane-curry-house-new-york-city.1628.r,99 2nd Ave.,New York,NY
Dallas BBQ (42nd St.),http://www.seamless.com/food-delivery/dallas-bbq-42nd-st-new-york-city.3861.r,241 West 42nd Street,New York,NY
Dallas BBQ (Chelsea),http://www.seamless.com/food-delivery/dallas-bbq-chelsea-new-york-city.740.r,261 8th Ave,New York,NY
Evergreen Diner,http://www.seamless.com/food-delivery/evergreen-diner-new-york-city.7531.r,145 West 47th Street,New York,NY
Kati,http://www.seamless.com/food-delivery/kati-manhattan-consumer.6764.r,347 E 14th St.,New York,NY
Nobi Sushi,http://www.seamless.com/food-delivery/nobi-sushi-new-york-city.2394.r,437 3rd Avenue,New York,NY
Weng's Palace/Thai Palace,http://www.seamless.com/food-delivery/wengs-palacethai-palace-new-york-city.7073.r,304 West 40th St,NY,NY
China Spice NYC,http://www.seamless.com/food-delivery/china-spice-nyc-new-york-city.17276.r,1588 York Ave,New York,NY
Coopers Tavern,http://www.seamless.com/food-delivery/coopers-tavern-new-york-city.5130.r,481 Eighth Ave,New York,NY
Europan Penn Station,http://www.seamless.com/food-delivery/europan-penn-station-new-york-city.4794.r,1 Penn Plaza,New York,NY
Fatty Crab (Hudson Street),http://www.seamless.com/food-delivery/fatty-crab-hudson-street-new-york-city.17457.r,643 Hudson Street,NY,NY
The Organic Grill,http://www.seamless.com/food-delivery/the-organic-grill-new-york-city.7431.r,123 1st Ave,New York,NY
V-Note,http://www.seamless.com/food-delivery/vnote-new-york-city.16455.r,1522 First Ave,New York,NY
Giorgione,http://www.seamless.com/food-delivery/giorgione-new-york-city.19455.r,307 Spring Street,New York,NY
Haru Wall St,http://www.seamless.com/food-delivery/haru-wall-st-new-york-city.9222.r,1 Wall Street Court,New York,NY
Aroma Espresso Bar (72nd St),http://www.seamless.com/food-delivery/aroma-espresso-bar-72nd-st-new-york-city.8805.r,161 W 72nd St,NY,NY
Aroma Espresso Bar (Midtown),http://www.seamless.com/food-delivery/aroma-espresso-bar-midtown-new-york-city.4547.r,205 East 42nd St,NY,NY
Rasa (Formerly known as Sushi Yawa),http://www.seamless.com/food-delivery/rasa-formerly-known-as-sushi-yawa-manhattan-consumer.8347.r,25 W 8th St.,New York,NY
Cafe Classico Glatt Kosher Restaurant,http://www.seamless.com/food-delivery/cafe-classico-glatt-kosher-restaurant-new-york-city.11.r,35 West 57th Street,New York,NY
Abboccato,http://www.seamless.com/food-delivery/abboccato-new-york-city.10576.r,136 West 55th St.,New York,NY
Baburchi's,http://www.seamless.com/food-delivery/baburchis-manhattan-consumer.9469.r,90 West 3rd St.,New York,NY
Dai Hachi Sushi,http://www.seamless.com/food-delivery/dai-hachi-sushi-new-york-city.11403.r,303 E. 56th St.,New York,NY
Crudo Restaurant,http://www.seamless.com/food-delivery/crudo-restaurant-new-york-city.16992.r,235 West 35th Street,NY,NY
International Food House,http://www.seamless.com/food-delivery/international-food-house-new-york-city.17181.r,217 Dyckman Street,New York,NY
La Corsa,http://www.seamless.com/food-delivery/la-corsa-new-york-city.17997.r,123 E. 110th Street,New York,NY
Nirvana (Lex),http://www.seamless.com/food-delivery/nirvana-lex-new-york-city.10617.r,346 Lexington Ave,New York,NY
Sushi Suki,http://www.seamless.com/food-delivery/sushi-suki-new-york-city.3505.r,1577 York Avenue,New York,NY
Texas Rotisserie & Grill (UWS),http://www.seamless.com/food-delivery/texas-rotisserie-grill-uws-new-york-city.11148.r,2581 Broadway,New York,NY
Adriatic Italian Restaurant,http://www.seamless.com/food-delivery/adriatic-italian-restaurant-new-york-city.19232.r,321 1st Avenue,NY,NY
Cosi (3rd Ave),http://www.seamless.com/food-delivery/cosi-3rd-ave-new-york-city.22451.r,685 3rd Ave.,New York,
Agora Turkish Restaurant,http://www.seamless.com/food-delivery/agora-turkish-restaurant-new-york-city.19619.r,1565 2nd Avenue,NY,NY
Amaze Restaurant,http://www.seamless.com/food-delivery/amaze-restaurant-new-york-city.19715.r,694 Third Avenue,New York,NY
Antalia Mediterranean Turkish Restaurant,http://www.seamless.com/food-delivery/antalia-mediterranean-turkish-restaurant-new-york-city.17444.r,17 W 45 Street,NY,NY
Bodrum Turkish Mediterranean Restaurant,http://www.seamless.com/food-delivery/bodrum-turkish-mediterranean-restaurant-new-york-city.4441.r,584 Amsterdam Ave,NY,NY
Cuba Restaurant,http://www.seamless.com/food-delivery/cuba-restaurant-new-york-city.16713.r,222 Thompson Street,New York,NY
Lin's Chinese Restaurant,http://www.seamless.com/food-delivery/lins-chinese-restaurant-ny-metro.18014.r,32 East 23rd St.,New York,NY
Cafe Evergreen,http://www.seamless.com/food-delivery/cafe-evergreen-new-york-city.1729.r,1367 1st Ave.,New York,NY
Calcutta Cuisine of India,http://www.seamless.com/food-delivery/calcutta-cuisine-of-india-manhattan-consumer.3828.r,324 E 6th Street,New York,NY
Sushiya,http://www.seamless.com/food-delivery/sushiya-new-york-city.7687.r,28 West 56th Street,New York,NY
David Burke at Bloomingdale's,http://www.seamless.com/food-delivery/david-burke-at-bloomingdales-new-york-city.7297.r,1000 3rd Avenue,NY,NY
Fresh Tortilla Express,http://www.seamless.com/food-delivery/fresh-tortilla-express-new-york-city.18455.r,206 Varick Street,NY,NY
Sakura of Japan,http://www.seamless.com/food-delivery/sakura-of-japan-new-york-city.71.r,819 2nd Avenue,New York,NY
Squires Diner,http://www.seamless.com/food-delivery/squires-diner-new-york-city.9431.r,80 Beekman St.,New York,NY
The Manchester Diner,http://www.seamless.com/food-delivery/the-manchester-diner-new-york-city.20067.r,2800 Broadway,New York,NY
Cosi (Broad St),http://www.seamless.com/food-delivery/cosi-broad-st-new-york-city.6603.r,55 Broad Street,NY,NY
Bodhi Tree,http://www.seamless.com/food-delivery/bodhi-tree-manhattan-consumer.6587.r,58 3rd Ave,New York,NY
Gracie Cafe,http://www.seamless.com/food-delivery/gracie-cafe-new-york-city.3761.r,1530 York Avenue,New York,NY
Happy Family Chinese and Japanese Restaurant,http://www.seamless.com/food-delivery/happy-family-chinese-and-japanese-restaurant-new-york-city.11411.r,500 West 43rd St.,New York,NY
Dulce Vida Cafe,http://www.seamless.com/food-delivery/dulce-vida-cafe-new-york-city.18804.r,1219 Lexington Ave,New York,NY
Saffron Garden,http://www.seamless.com/food-delivery/saffron-garden-queens.19818.r,46-11 Skillman Ave,Woodside,NY
Olympic Pita,http://www.seamless.com/food-delivery/olympic-pita-new-york-city.3699.r,58 West 38th Street,New York,NY
Shun Lee Palace,http://www.seamless.com/food-delivery/shun-lee-palace-new-york-city.21.r,155 East 55th Street,New York,NY
Pesce Pasta (Bleecker),http://www.seamless.com/food-delivery/pesce-pasta-bleecker-new-york-city.3445.r,262 Bleecker St,New York,NY
Pesce Pasta (Columbus),http://www.seamless.com/food-delivery/pesce-pasta-columbus-new-york-city.3432.r,625 Columbus,New York,NY
Tasty Cafe,http://www.seamless.com/food-delivery/tasty-cafe-new-york-city.4028.r,2062 Broadway,NY,NY
Bellini Italian Restaurant & Brick Oven Pizzeria,http://www.seamless.com/food-delivery/bellini-italian-restaurant-brick-oven-pizzeria-manhattan-consumer.9771.r,483 Columbus Ave,New York,NY
Brindle Room,http://www.seamless.com/food-delivery/brindle-room-new-york-city.16621.r,277 East 10th St,New York,NY
Brother Jimmy's Union Square,http://www.seamless.com/food-delivery/brother-jimmys-union-square-new-york-city.19275.r,116 E 16th Street,New York,NY
Cafe Gusto,http://www.seamless.com/food-delivery/cafe-gusto-new-york-city.9361.r,111 John St.,New York,NY
Chef 28,http://www.seamless.com/food-delivery/chef-28-new-york-city.17477.r,29 E 28th St,New York,NY
L'yBane,http://www.seamless.com/food-delivery/lybane-new-york-city.7013.r,709 8th Ave.,New York,NY
McGeeâ€™s,http://www.seamless.com/food-delivery/mcgees-new-york-city.4701.r,240 W 55th Street,NY,NY
Monster Sushi (W23rd),http://www.seamless.com/food-delivery/monster-sushi-w23rd-new-york-city.2140.r,158 W 23rd Street,NY,NY
Monster Sushi (46th),http://www.seamless.com/food-delivery/monster-sushi-46th-new-york-city.2285.r,22 W 46th Street,New York,NY
Oficina Latina,http://www.seamless.com/food-delivery/oficina-latina-ny-metro.17299.r,24 Prince St,New York,NY
Pasha,http://www.seamless.com/food-delivery/pasha-new-york-city.1945.r,70 West 71st Street,New York,NY
Pho Sure,http://www.seamless.com/food-delivery/pho-sure-manhattan-consumer.4754.r,120 Christopher Street,New York,NY
Saigon Market,http://www.seamless.com/food-delivery/saigon-market-new-york-city.18760.r,93 University Place,NY,NY
Spice Noodle,http://www.seamless.com/food-delivery/spice-noodle-new-york-city.3409.r,1509 Lexington Ave,New York,NY
Supper,http://www.seamless.com/food-delivery/supper-new-york-city.18205.r,156 E 2nd St,NY,NY
Vin et Fleurs,http://www.seamless.com/food-delivery/vin-et-fleurs-new-york-city.18017.r,69 Thompson Street,New York,NY
Bangkok Heights,http://www.seamless.com/food-delivery/bangkok-heights-new-york-city.8529.r,812 West 181st Street,NY,NY
Buddha Bodai One Vegetarian,http://www.seamless.com/food-delivery/buddha-bodai-one-vegetarian-new-york-city.3197.r,5 Mott Street,New York,NY
Westway Diner,http://www.seamless.com/food-delivery/westway-diner-new-york-city.3988.r,614 9th Avenue,New York,NY
Hampton Gourmet,http://www.seamless.com/food-delivery/hampton-gourmet-new-york-city.6240.r,755 9th Ave,NY,NY
Hamptons Market Place (217 1st Ave),http://www.seamless.com/food-delivery/hamptons-market-place-217-1st-ave-new-york-city.19764.r,217 1st Ave,New York,NY
Hamptons Marketplace (30th),http://www.seamless.com/food-delivery/hamptons-marketplace-30th-new-york-city.18189.r,312 11th Avenue,NY,NY
Liberty Deli/Mrs. Field's,http://www.seamless.com/food-delivery/liberty-delimrs-fields-new-york-city.4924.r,30 Rockefeller Plaza,NY,NY
The Path Cafe,http://www.seamless.com/food-delivery/the-path-cafe-manhattan-consumer.5522.r,131 Christopher St.,NY,NY
Yummy Sushi (1st Ave),http://www.seamless.com/food-delivery/yummy-sushi-1st-ave-new-york-city.16878.r,1758 First Avenue,New York,NY
Burger Burger,http://www.seamless.com/food-delivery/burger-burger-new-york-city.3759.r,77 Pearl Street,NY,NY
Express Manna Kitchen,http://www.seamless.com/food-delivery/express-manna-kitchen-new-york-city.9425.r,28 East 18th St.,New York,NY
Amber (West Village),http://www.seamless.com/food-delivery/amber-west-village-new-york-city.5951.r,135 Christopher Street,New York,NY
Havana Alma de Cuba,http://www.seamless.com/food-delivery/havana-alma-de-cuba-new-york-city.3633.r,94 Christopher Street,New York,NY
Sophie's Cuban Cuisine (23rd St.),http://www.seamless.com/food-delivery/sophies-cuban-cuisine-23rd-st-new-york-city.11353.r,28 East 23rd St.,New York,NY
Sophie's Cuban Cuisine (Chambers St.),http://www.seamless.com/food-delivery/sophies-cuban-cuisine-chambers-st-new-york-city.10040.r,96 Chambers St.,New York,NY
Sophie's Cuban Cuisine (Lexington),http://www.seamless.com/food-delivery/sophies-cuban-cuisine-lexington-new-york-city.11351.r,369 Lexington Ave,New York,NY
Aangan,http://www.seamless.com/food-delivery/aangan-new-york-city.4698.r,2701 Broadway,New York,NY
Majestic Deli,http://www.seamless.com/food-delivery/majestic-deli-new-york-city.1256.r,200 W. 50th Street,New York,NY
Premier Deli,http://www.seamless.com/food-delivery/premier-deli-manhattan-consumer.4777.r,856 7th Ave,New York,NY
Coppolas East,http://www.seamless.com/food-delivery/coppolas-east-new-york-city.19946.r,378 3rd Avenue,New York,NY
94 Corner Cafe,http://www.seamless.com/food-delivery/94-corner-cafe-new-york-city.7437.r,2518 Broadway,NY,NY
Bello Italian Cuisine,http://www.seamless.com/food-delivery/bello-italian-cuisine-new-york-city.16863.r,863 9th Avenue,New York,NY
Ciao Bella Napoli Restaurant (7th Ave),http://www.seamless.com/food-delivery/ciao-bella-napoli-restaurant-7th-ave-new-york-city.1199.r,257 Seventh Avenue,New York,NY
Cinema Brasserie,http://www.seamless.com/food-delivery/cinema-brasserie-new-york-city.645.r,2 East 45th Street,New York,NY
Cipriani Le Specialita,http://www.seamless.com/food-delivery/cipriani-le-specialita-new-york-city.5737.r,110 East 42nd Street,New York,NY
Essex World Cafe,http://www.seamless.com/food-delivery/essex-world-cafe-new-york-city.1354.r,112 Liberty Street,NY,NY
Market Diner,http://www.seamless.com/food-delivery/market-diner-new-york-city.10029.r,572 11th Ave,New York,NY
Ravagh,http://www.seamless.com/food-delivery/ravagh-new-york-city.810.r,11 East 30th Street,New York,NY
Stage Door Deli (Vesey St),http://www.seamless.com/food-delivery/stage-door-deli-vesey-st-new-york-city.9368.r,26 Vesey St.,New York,NY
Bread Market Cafe,http://www.seamless.com/food-delivery/bread-market-cafe-new-york-city.2281.r,1290 Ave Of The Americas,New York,NY
Cha Pa's Noodles and Grill,http://www.seamless.com/food-delivery/cha-pas-noodles-and-grill-new-york-city.19460.r,314 West 52nd Street,NY,NY
Chickpea (45th Street),http://www.seamless.com/food-delivery/chickpea-45th-street-new-york-city.17513.r,45 E 45th Street,New York,NY
Chickpea (CityCorp Bldg),http://www.seamless.com/food-delivery/chickpea-citycorp-bldg-new-york-city.17957.r,601 Lexington Avenue,NY,NY
City Chow Cafe (Lexington),http://www.seamless.com/food-delivery/city-chow-cafe-lexington-new-york-city.2283.r,420 Lexington Ave,New York,NY
Digby's Cafe,http://www.seamless.com/food-delivery/digbys-cafe-new-york-city.1244.r,666 Fifth Avenue,New York,NY
Hanci Turkish Cuisine,http://www.seamless.com/food-delivery/hanci-turkish-cuisine-new-york-city.7793.r,854 10th Avenue,New York,NY
Melt Shop,http://www.seamless.com/food-delivery/melt-shop-new-york-city.17990.r,601 Lexington Avenue,New York,NY
Teresa's Brick Oven Pizza & Cafe,http://www.seamless.com/food-delivery/teresas-brick-oven-pizza-cafe-new-york-city.824.r,51 West 51st Street,New York,NY
Toloache Taqueria,http://www.seamless.com/food-delivery/toloache-taqueria-new-york-city.17274.r,83 Maiden Lane,New York,NY
Insomnia Cookies (Murray Hill),http://www.seamless.com/food-delivery/insomnia-cookies-murray-hill-new-york-city.20266.r,482 3rd Ave,NY,NY
Insomnia Cookies (NYU),http://www.seamless.com/food-delivery/insomnia-cookies-nyu-new-york-city.9184.r,116 Macdougal Street,NY,NY
Insomnia Cookies (UES),http://www.seamless.com/food-delivery/insomnia-cookies-ues-new-york-city.20267.r,1579 2nd Avenue,NY,NY
Insomnia Cookies (UWS),http://www.seamless.com/food-delivery/insomnia-cookies-uws-new-york-city.16439.r,405 Amsterdam Avenue,New York,NY
Amber (3rd Ave),http://www.seamless.com/food-delivery/amber-3rd-ave-new-york-city.9533.r,381 3rd Avenue,New York,NY
Benjamin Steakhouse,http://www.seamless.com/food-delivery/benjamin-steakhouse-new-york-city.10425.r,52 East 41st St.,New York,NY
Connollys Irish Pub & Restaurant,http://www.seamless.com/food-delivery/connollys-irish-pub-restaurant-new-york-city.3362.r,121 West 45th Street,New York,NY
Pad Thai,http://www.seamless.com/food-delivery/pad-thai-new-york-city.1687.r,409a 8th Ave,NY,NY
Pars Grill House & Bar,http://www.seamless.com/food-delivery/pars-grill-house-bar-new-york-city.8121.r,249 W 26th St,New York,NY
Pera Mediterranean Brasserie,http://www.seamless.com/food-delivery/pera-mediterranean-brasserie-new-york-city.9360.r,303 Madison Avenue,New York,NY
Valent & Cook,http://www.seamless.com/food-delivery/valent-cook-new-york-city.4249.r,74 5th Avenue,NY,NY
Cafe Isadora's (Formerly Isadora's Cafe),http://www.seamless.com/food-delivery/cafe-isadoras-formerly-isadoras-cafe-new-york-city.2020.r,16 East 52nd Street,New York,NY
Gracie Mews Diner,http://www.seamless.com/food-delivery/gracie-mews-diner-new-york-city.7669.r,1550 First Avenue,New York,NY
Bangkok 2 Thai,http://www.seamless.com/food-delivery/bangkok-2-thai-manhattan-consumer.9953.r,349 1st Ave,New York,NY
Concrete Restaurant,http://www.seamless.com/food-delivery/concrete-restaurant-new-york-city.6999.r,320 W 37th Street,New York,NY
Fusha,http://www.seamless.com/food-delivery/fusha-new-york-city.1721.r,1065 1st Avenue,NY,NY
Qi (43rd St),http://www.seamless.com/food-delivery/qi-43rd-st-new-york-city.19013.r,675 8th Avenue,New York,NY
SUteiShi,http://www.seamless.com/food-delivery/suteishi-new-york-city.3711.r,24 Peck Slip,NY,NY
Gee Whiz Diner,http://www.seamless.com/food-delivery/gee-whiz-diner-new-york-city.951.r,295 Greenwich Street,New York,NY
Ponty Bistro,http://www.seamless.com/food-delivery/ponty-bistro-new-york-city.11209.r,218 3rd Ave,New York,NY
Silver Spurs,http://www.seamless.com/food-delivery/silver-spurs-new-york-city.987.r,490 Laguardia Place,New York,NY
Theatre Row Diner,http://www.seamless.com/food-delivery/theatre-row-diner-new-york-city.16581.r,424 West 42nd St,New York,NY
Artichoke Pizza,http://www.seamless.com/food-delivery/artichoke-pizza-new-york-city.17235.r,114 10th Ave,New York,NY
Coppelia,http://www.seamless.com/food-delivery/coppelia-new-york-city.18242.r,207 W 14th St,NY,NY
Lily's,http://www.seamless.com/food-delivery/lilys-new-york-city.4004.r,31 Oliver St.,NY,NY
Salaam Bombay,http://www.seamless.com/food-delivery/salaam-bombay-new-york-city.691.r,319 Greenwich Avenue,New York,NY
Taco House,http://www.seamless.com/food-delivery/taco-house-new-york-city.4738.r,178 Church St.,New York,NY
Fresco Tortillas (9th Ave),http://www.seamless.com/food-delivery/fresco-tortillas-9th-ave-new-york-city.11468.r,536 9th Ave,New York,NY
Amelia's Diner,http://www.seamless.com/food-delivery/amelias-diner-new-york-city.12704.r,110 Varick St.,New York,NY
Cafe Amore's Pizzeria Ristorante (Chambers Street),http://www.seamless.com/food-delivery/cafe-amores-pizzeria-ristorante-chambers-street-new-york-city.18790.r,147 Chambers St.,New York,NY
Chelsea Square Restaurant,http://www.seamless.com/food-delivery/chelsea-square-restaurant-new-york-city.16733.r,368 W 23rd St,New York,NY
Diablo Royale,http://www.seamless.com/food-delivery/diablo-royale-new-york-city.19098.r,189 W 10th St,New York,NY
Harry's Cafe & Steak,http://www.seamless.com/food-delivery/harrys-cafe-steak-new-york-city.3756.r,1 Hanover Square,New York,NY
Hudson View Restaurant,http://www.seamless.com/food-delivery/hudson-view-restaurant-new-york-city.18162.r,770 W 181st St.,New York,NY
Pick a Bagel (8th Ave),http://www.seamless.com/food-delivery/pick-a-bagel-8th-ave-new-york-city.1494.r,891 Eighth Ave,New York,NY
Eighteen Restaurant,http://www.seamless.com/food-delivery/eighteen-restaurant-new-york-city.7274.r,240 East 81st Street,New York,NY
BLT Fish Shack,http://www.seamless.com/food-delivery/blt-fish-shack-new-york-city.19913.r,21 W 17th Street,NY,NY
Casa Nonna,http://www.seamless.com/food-delivery/casa-nonna-new-york-city.19932.r,310 W 38th St,NY,NY
Fresh & Co. (57th Street),http://www.seamless.com/food-delivery/fresh-co-57th-street-new-york-city.4313.r,45 West 57th Street,NY,NY
Fresh & Co. (Lexington Avenue),http://www.seamless.com/food-delivery/fresh-co-lexington-avenue-new-york-city.5095.r,681 Lexington Avenue,NY,NY
Fresh & Co. (Seventh Avenue),http://www.seamless.com/food-delivery/fresh-co-seventh-avenue-new-york-city.8327.r,363 Seventh Avenue,New York,NY
Garlic New York Pizza Bar,http://www.seamless.com/food-delivery/garlic-new-york-pizza-bar-new-york-city.19789.r,629 Second Avenue,NY,NY
Goodfellas LES,http://www.seamless.com/food-delivery/goodfellas-les-new-york-city.18756.r,144 Orchard Street,NY,NY
Jimmy's BurgerShack (brought to you by Brother Jimmy's),http://www.seamless.com/food-delivery/jimmys-burgershack-brought-to-you-by-brother-jimmys-new-york-city.19639.r,258 West 31st Street,NY,NY
Minar Indian Restaurant (31st St.),http://www.seamless.com/food-delivery/minar-indian-restaurant-31st-st-new-york-city.4204.r,5 West 31st Street,New York,NY
Minar Indian Restaurant (46th St.),http://www.seamless.com/food-delivery/minar-indian-restaurant-46th-st-new-york-city.4209.r,138 West 46th Street,New York City,NY
Napoli Pizza & Pasta (formerly Dolce Vita Pizzeria),http://www.seamless.com/food-delivery/napoli-pizza-pasta-formerly-dolce-vita-pizzeria-new-york-city.4823.r,152 East 110th St,New York,NY
Obao,http://www.seamless.com/food-delivery/obao-new-york-city.8064.r,222 E 53rd St,NY,NY
Pranna,http://www.seamless.com/food-delivery/pranna-new-york-city.19511.r,79 Madison Avenue,New York,NY
La Silhouette,http://www.seamless.com/food-delivery/la-silhouette-new-york-city.20021.r,362 West 53rd Street,New York,NY
Gigino at Wagner Park,http://www.seamless.com/food-delivery/gigino-at-wagner-park-new-york-city.8591.r,New York,NY,10004
Hunan Park,http://www.seamless.com/food-delivery/hunan-park-new-york-city.17043.r,721 Columbus Ave,New York,NY
John's of 12th Street,http://www.seamless.com/food-delivery/johns-of-12th-street-new-york-city.8500.r,302 E 12th Street,NY,NY
Rice & Beans,http://www.seamless.com/food-delivery/rice-beans-new-york-city.8557.r,744 Ninth Ave,New York,NY
Rye House,http://www.seamless.com/food-delivery/rye-house-new-york-city.4511.r,11 W. 17th St,NY,NY
Warren 77,http://www.seamless.com/food-delivery/warren-77-new-york-city.8123.r,77 Warren St,New York,NY
Aaheli,http://www.seamless.com/food-delivery/aaheli-new-york-city.7718.r,826 9th Ave,New York,NY
Zabb City,http://www.seamless.com/food-delivery/zabb-city-manhattan-consumer.10183.r,244 East 13th St.,New York,NY
Red Egg,http://www.seamless.com/food-delivery/red-egg-new-york-city.16317.r,202 Centre St.,New York,NY
AA Jing,http://www.seamless.com/food-delivery/aa-jing-new-york-city.11400.r,689 9th Ave,New York,NY
Bus Stop Cafe,http://www.seamless.com/food-delivery/bus-stop-cafe-manhattan-consumer.3713.r,597 Hudson Street,New York,NY
California Pizza Kitchen (Park Ave),http://www.seamless.com/food-delivery/california-pizza-kitchen-park-ave-ny-metro.6974.r,440 Park Avenue S.,NY,NY
Gran Piatto d Oro,http://www.seamless.com/food-delivery/gran-piatto-d-oro-new-york-city.19129.r,1429 5th Avenue,NY,NY
Sac's Place,http://www.seamless.com/food-delivery/sacs-place-queens.16684.r,2541 Broadway,Astoria,NY
Fusha,http://www.seamless.com/food-delivery/fusha-new-york-city.1721.r,1065 1st Avenue,NY,NY
Qi (43rd St),http://www.seamless.com/food-delivery/qi-43rd-st-new-york-city.19013.r,675 8th Avenue,New York,NY
SUteiShi,http://www.seamless.com/food-delivery/suteishi-new-york-city.3711.r,24 Peck Slip,NY,NY
Gee Whiz Diner,http://www.seamless.com/food-delivery/gee-whiz-diner-new-york-city.951.r,295 Greenwich Street,New York,NY
Ponty Bistro,http://www.seamless.com/food-delivery/ponty-bistro-new-york-city.11209.r,218 3rd Ave,New York,NY
Silver Spurs,http://www.seamless.com/food-delivery/silver-spurs-new-york-city.987.r,490 Laguardia Place,New York,NY
Theatre Row Diner,http://www.seamless.com/food-delivery/theatre-row-diner-new-york-city.16581.r,424 West 42nd St,New York,NY
Artichoke Pizza,http://www.seamless.com/food-delivery/artichoke-pizza-new-york-city.17235.r,114 10th Ave,New York,NY
Coppelia,http://www.seamless.com/food-delivery/coppelia-new-york-city.18242.r,207 W 14th St,NY,NY
Lily's,http://www.seamless.com/food-delivery/lilys-new-york-city.4004.r,31 Oliver St.,NY,NY
Salaam Bombay,http://www.seamless.com/food-delivery/salaam-bombay-new-york-city.691.r,319 Greenwich Avenue,New York,NY
Taco House,http://www.seamless.com/food-delivery/taco-house-new-york-city.4738.r,178 Church St.,New York,NY
Fresco Tortillas (9th Ave),http://www.seamless.com/food-delivery/fresco-tortillas-9th-ave-new-york-city.11468.r,536 9th Ave,New York,NY
Amelia's Diner,http://www.seamless.com/food-delivery/amelias-diner-new-york-city.12704.r,110 Varick St.,New York,NY
Cafe Amore's Pizzeria Ristorante (Chambers Street),http://www.seamless.com/food-delivery/cafe-amores-pizzeria-ristorante-chambers-street-new-york-city.18790.r,147 Chambers St.,New York,NY
Chelsea Square Restaurant,http://www.seamless.com/food-delivery/chelsea-square-restaurant-new-york-city.16733.r,368 W 23rd St,New York,NY
Diablo Royale,http://www.seamless.com/food-delivery/diablo-royale-new-york-city.19098.r,189 W 10th St,New York,NY
Harry's Cafe & Steak,http://www.seamless.com/food-delivery/harrys-cafe-steak-new-york-city.3756.r,1 Hanover Square,New York,NY
Hudson View Restaurant,http://www.seamless.com/food-delivery/hudson-view-restaurant-new-york-city.18162.r,770 W 181st St.,New York,NY
Pick a Bagel (8th Ave),http://www.seamless.com/food-delivery/pick-a-bagel-8th-ave-new-york-city.1494.r,891 Eighth Ave,New York,NY
Eighteen Restaurant,http://www.seamless.com/food-delivery/eighteen-restaurant-new-york-city.7274.r,240 East 81st Street,New York,NY
BLT Fish Shack,http://www.seamless.com/food-delivery/blt-fish-shack-new-york-city.19913.r,21 W 17th Street,NY,NY
Casa Nonna,http://www.seamless.com/food-delivery/casa-nonna-new-york-city.19932.r,310 W 38th St,NY,NY
Fresh & Co. (57th Street),http://www.seamless.com/food-delivery/fresh-co-57th-street-new-york-city.4313.r,45 West 57th Street,NY,NY
Fresh & Co. (Lexington Avenue),http://www.seamless.com/food-delivery/fresh-co-lexington-avenue-new-york-city.5095.r,681 Lexington Avenue,NY,NY
Fresh & Co. (Seventh Avenue),http://www.seamless.com/food-delivery/fresh-co-seventh-avenue-new-york-city.8327.r,363 Seventh Avenue,New York,NY
Garlic New York Pizza Bar,http://www.seamless.com/food-delivery/garlic-new-york-pizza-bar-new-york-city.19789.r,629 Second Avenue,NY,NY
Goodfellas LES,http://www.seamless.com/food-delivery/goodfellas-les-new-york-city.18756.r,144 Orchard Street,NY,NY
Jimmy's BurgerShack (brought to you by Brother Jimmy's),http://www.seamless.com/food-delivery/jimmys-burgershack-brought-to-you-by-brother-jimmys-new-york-city.19639.r,258 West 31st Street,NY,NY
Minar Indian Restaurant (31st St.),http://www.seamless.com/food-delivery/minar-indian-restaurant-31st-st-new-york-city.4204.r,5 West 31st Street,New York,NY
Minar Indian Restaurant (46th St.),http://www.seamless.com/food-delivery/minar-indian-restaurant-46th-st-new-york-city.4209.r,138 West 46th Street,New York City,NY
Napoli Pizza & Pasta (formerly Dolce Vita Pizzeria),http://www.seamless.com/food-delivery/napoli-pizza-pasta-formerly-dolce-vita-pizzeria-new-york-city.4823.r,152 East 110th St,New York,NY
Obao,http://www.seamless.com/food-delivery/obao-new-york-city.8064.r,222 E 53rd St,NY,NY
Pranna,http://www.seamless.com/food-delivery/pranna-new-york-city.19511.r,79 Madison Avenue,New York,NY
La Silhouette,http://www.seamless.com/food-delivery/la-silhouette-new-york-city.20021.r,362 West 53rd Street,New York,NY
Gigino at Wagner Park,http://www.seamless.com/food-delivery/gigino-at-wagner-park-new-york-city.8591.r,New York,NY,10004
Hunan Park,http://www.seamless.com/food-delivery/hunan-park-new-york-city.17043.r,721 Columbus Ave,New York,NY
John's of 12th Street,http://www.seamless.com/food-delivery/johns-of-12th-street-new-york-city.8500.r,302 E 12th Street,NY,NY
Rice & Beans,http://www.seamless.com/food-delivery/rice-beans-new-york-city.8557.r,744 Ninth Ave,New York,NY
Rye House,http://www.seamless.com/food-delivery/rye-house-new-york-city.4511.r,11 W. 17th St,NY,NY
Warren 77,http://www.seamless.com/food-delivery/warren-77-new-york-city.8123.r,77 Warren St,New York,NY
Aaheli,http://www.seamless.com/food-delivery/aaheli-new-york-city.7718.r,826 9th Ave,New York,NY
Zabb City,http://www.seamless.com/food-delivery/zabb-city-manhattan-consumer.10183.r,244 East 13th St.,New York,NY
Red Egg,http://www.seamless.com/food-delivery/red-egg-new-york-city.16317.r,202 Centre St.,New York,NY
AA Jing,http://www.seamless.com/food-delivery/aa-jing-new-york-city.11400.r,689 9th Ave,New York,NY
Bus Stop Cafe,http://www.seamless.com/food-delivery/bus-stop-cafe-manhattan-consumer.3713.r,597 Hudson Street,New York,NY
California Pizza Kitchen (Park Ave),http://www.seamless.com/food-delivery/california-pizza-kitchen-park-ave-ny-metro.6974.r,440 Park Avenue S.,NY,NY
Gran Piatto d Oro,http://www.seamless.com/food-delivery/gran-piatto-d-oro-new-york-city.19129.r,1429 5th Avenue,NY,NY
Sac's Place,http://www.seamless.com/food-delivery/sacs-place-queens.16684.r,2541 Broadway,Astoria,NY
Adrienne's Pizza Bar,http://www.seamless.com/food-delivery/adriennes-pizza-bar-new-york-city.4671.r,54 Stone St.,New York,NY
Brick Lane Curry House,http://www.seamless.com/food-delivery/brick-lane-curry-house-new-york-city.1628.r,99 2nd Ave.,New York,NY
Dallas BBQ (42nd St.),http://www.seamless.com/food-delivery/dallas-bbq-42nd-st-new-york-city.3861.r,241 West 42nd Street,New York,NY
Dallas BBQ (Chelsea),http://www.seamless.com/food-delivery/dallas-bbq-chelsea-new-york-city.740.r,261 8th Ave,New York,NY
Evergreen Diner,http://www.seamless.com/food-delivery/evergreen-diner-new-york-city.7531.r,145 West 47th Street,New York,NY
Kati,http://www.seamless.com/food-delivery/kati-manhattan-consumer.6764.r,347 E 14th St.,New York,NY
Nobi Sushi,http://www.seamless.com/food-delivery/nobi-sushi-new-york-city.2394.r,437 3rd Avenue,New York,NY
Weng's Palace/Thai Palace,http://www.seamless.com/food-delivery/wengs-palacethai-palace-new-york-city.7073.r,304 West 40th St,NY,NY
China Spice NYC,http://www.seamless.com/food-delivery/china-spice-nyc-new-york-city.17276.r,1588 York Ave,New York,NY
Coopers Tavern,http://www.seamless.com/food-delivery/coopers-tavern-new-york-city.5130.r,481 Eighth Ave,New York,NY
Europan Penn Station,http://www.seamless.com/food-delivery/europan-penn-station-new-york-city.4794.r,1 Penn Plaza,New York,NY
Fatty Crab (Hudson Street),http://www.seamless.com/food-delivery/fatty-crab-hudson-street-new-york-city.17457.r,643 Hudson Street,NY,NY
The Organic Grill,http://www.seamless.com/food-delivery/the-organic-grill-new-york-city.7431.r,123 1st Ave,New York,NY
V-Note,http://www.seamless.com/food-delivery/vnote-new-york-city.16455.r,1522 First Ave,New York,NY
Giorgione,http://www.seamless.com/food-delivery/giorgione-new-york-city.19455.r,307 Spring Street,New York,NY
Haru Wall St,http://www.seamless.com/food-delivery/haru-wall-st-new-york-city.9222.r,1 Wall Street Court,New York,NY
Aroma Espresso Bar (72nd St),http://www.seamless.com/food-delivery/aroma-espresso-bar-72nd-st-new-york-city.8805.r,161 W 72nd St,NY,NY
Aroma Espresso Bar (Midtown),http://www.seamless.com/food-delivery/aroma-espresso-bar-midtown-new-york-city.4547.r,205 East 42nd St,NY,NY
Rasa (Formerly known as Sushi Yawa),http://www.seamless.com/food-delivery/rasa-formerly-known-as-sushi-yawa-manhattan-consumer.8347.r,25 W 8th St.,New York,NY
Cafe Classico Glatt Kosher Restaurant,http://www.seamless.com/food-delivery/cafe-classico-glatt-kosher-restaurant-new-york-city.11.r,35 West 57th Street,New York,NY
Abboccato,http://www.seamless.com/food-delivery/abboccato-new-york-city.10576.r,136 West 55th St.,New York,NY
Baburchi's,http://www.seamless.com/food-delivery/baburchis-manhattan-consumer.9469.r,90 West 3rd St.,New York,NY
Dai Hachi Sushi,http://www.seamless.com/food-delivery/dai-hachi-sushi-new-york-city.11403.r,303 E. 56th St.,New York,NY
Crudo Restaurant,http://www.seamless.com/food-delivery/crudo-restaurant-new-york-city.16992.r,235 West 35th Street,NY,NY
International Food House,http://www.seamless.com/food-delivery/international-food-house-new-york-city.17181.r,217 Dyckman Street,New York,NY
La Corsa,http://www.seamless.com/food-delivery/la-corsa-new-york-city.17997.r,123 E. 110th Street,New York,NY
Nirvana (Lex),http://www.seamless.com/food-delivery/nirvana-lex-new-york-city.10617.r,346 Lexington Ave,New York,NY
Sushi Suki,http://www.seamless.com/food-delivery/sushi-suki-new-york-city.3505.r,1577 York Avenue,New York,NY
Texas Rotisserie & Grill (UWS),http://www.seamless.com/food-delivery/texas-rotisserie-grill-uws-new-york-city.11148.r,2581 Broadway,New York,NY
Adriatic Italian Restaurant,http://www.seamless.com/food-delivery/adriatic-italian-restaurant-new-york-city.19232.r,321 1st Avenue,NY,NY
Agora Turkish Restaurant,http://www.seamless.com/food-delivery/agora-turkish-restaurant-new-york-city.19619.r,1565 2nd Avenue,NY,NY
Amaze Restaurant,http://www.seamless.com/food-delivery/amaze-restaurant-new-york-city.19715.r,694 Third Avenue,New York,NY
Antalia Mediterranean Turkish Restaurant,http://www.seamless.com/food-delivery/antalia-mediterranean-turkish-restaurant-new-york-city.17444.r,17 W 45 Street,NY,NY
Bodrum Turkish Mediterranean Restaurant,http://www.seamless.com/food-delivery/bodrum-turkish-mediterranean-restaurant-new-york-city.4441.r,584 Amsterdam Ave,NY,NY
Cuba Restaurant,http://www.seamless.com/food-delivery/cuba-restaurant-new-york-city.16713.r,222 Thompson Street,New York,NY
Lin's Chinese Restaurant,http://www.seamless.com/food-delivery/lins-chinese-restaurant-ny-metro.18014.r,32 East 23rd St.,New York,NY
Cafe Evergreen,http://www.seamless.com/food-delivery/cafe-evergreen-new-york-city.1729.r,1367 1st Ave.,New York,NY
Calcutta Cuisine of India,http://www.seamless.com/food-delivery/calcutta-cuisine-of-india-manhattan-consumer.3828.r,324 E 6th Street,New York,NY
Sushiya,http://www.seamless.com/food-delivery/sushiya-new-york-city.7687.r,28 West 56th Street,New York,NY
David Burke at Bloomingdale's,http://www.seamless.com/food-delivery/david-burke-at-bloomingdales-new-york-city.7297.r,1000 3rd Avenue,NY,NY
Fresh Tortilla Express,http://www.seamless.com/food-delivery/fresh-tortilla-express-new-york-city.18455.r,206 Varick Street,NY,NY
Sakura of Japan,http://www.seamless.com/food-delivery/sakura-of-japan-new-york-city.71.r,819 2nd Avenue,New York,NY
Squires Diner,http://www.seamless.com/food-delivery/squires-diner-new-york-city.9431.r,80 Beekman St.,New York,NY
The Manchester Diner,http://www.seamless.com/food-delivery/the-manchester-diner-new-york-city.20067.r,2800 Broadway,New York,NY
Cosi (Broad St),http://www.seamless.com/food-delivery/cosi-broad-st-new-york-city.6603.r,55 Broad Street,NY,NY
Bodhi Tree,http://www.seamless.com/food-delivery/bodhi-tree-manhattan-consumer.6587.r,58 3rd Ave,New York,NY
Gracie Cafe,http://www.seamless.com/food-delivery/gracie-cafe-new-york-city.3761.r,1530 York Avenue,New York,NY
Happy Family Chinese and Japanese Restaurant,http://www.seamless.com/food-delivery/happy-family-chinese-and-japanese-restaurant-new-york-city.11411.r,500 West 43rd St.,New York,NY
Dulce Vida Cafe,http://www.seamless.com/food-delivery/dulce-vida-cafe-new-york-city.18804.r,1219 Lexington Ave,New York,NY
Saffron Garden,http://www.seamless.com/food-delivery/saffron-garden-queens.19818.r,46-11 Skillman Ave,Woodside,NY